{"type": "FeatureCollection", "features": [{"type": "Feature", "properties": {"name": "Wamba", "kind": "village"}, "geometry": {"type": "Point", "coordinates": [37.323872, 0.979156]}}, {"type": "Feature", "properties": {"name": "Tura", "kind": "village"}, "geometry": {"type": "Point", "coordinates": [37.0333, 0.5333]}}, {"type": "Feature", "properties": {"name": "Tungu", "kind": "village"}, "geometry": {"type": "Point", "coordinates": [37.6333, -0.3]}}, {"type": "Feature", "properties": {"name": "Timau", "kind": "town"}, "geometry": {"type": "Point", "coordinates": [37.2389064, 0.0859445]}}, {"type": "Feature", "properties": {"name": "Thuthuriki", "kind": "village"}, "geometry": {"type": "Point", "coordinates": [36.7666, 0.0666]}}, {"type": "Feature", "properties": {"name": "Thangata", "kind": "village"}, "geometry": {"type": "Point", "coordinates": [38.3166, -0.2]}}, {"type": "Feature", "properties": {"name": "Tharaka Kijegge", "kind": "village"}, "geometry": {"type": "Point", "coordinates": [38.0166, -0.3]}}, {"type": "Feature", "properties": {"name": "Tharaka", "kind": "village"}, "geometry": {"type": "Point", "coordinates": [38.0166, -0.3]}}, {"type": "Feature", "properties": {"name": "Oltulili", "kind": "village"}, "geometry": {"type": "Point", "coordinates": [37.1666, 0.0166]}}, {"type": "Feature", "properties": {"name": "Ngathune", "kind": "village"}, "geometry": {"type": "Point", "coordinates": [38.2833, -0.2333]}}, {"type": "Feature", "properties": {"name": "Naro Moru", "kind": "town"}, "geometry": {"type": "Point", "coordinates": [37.021229, -0.169126]}}, {"type": "Feature", "properties": {"name": "Nanyuki", "kind": "town"}, "geometry": {"type": "Point", "coordinates": [37.074632, 0.01403]}}, {"type": "Feature", "properties": {"name": "Mwangareme", "kind": "village"}, "geometry": {"type": "Point", "coordinates": [37.65, -0.2666]}}, {"type": "Feature", "properties": {"name": "Muthara", "kind": "village"}, "geometry": {"type": "Point", "coordinates": [37.8, 0.2166]}}, {"type": "Feature", "properties": {"name": "Muchiene", "kind": "village"}, "geometry": {"type": "Point", "coordinates": [37.5333, 0.1]}}, {"type": "Feature", "properties": {"name": "Mikinduri", "kind": "village"}, "geometry": {"type": "Point", "coordinates": [37.834493, 0.123276]}}, {"type": "Feature", "properties": {"name": "Mitungugu", "kind": "village"}, "geometry": {"type": "Point", "coordinates": [37.7833, 0.1]}}, {"type": "Feature", "properties": {"name": "Mitunguu", "kind": "village"}, "geometry": {"type": "Point", "coordinates": [37.7833, 0.1]}}, {"type": "Feature", "properties": {"name": "Meru", "kind": "city"}, "geometry": {"type": "Point", "coordinates": [37.6500063, 0.0499786]}}, {"type": "Feature", "properties": {"name": "Mariani", "kind": "village"}, "geometry": {"type": "Point", "coordinates": [37.7, -0.3166]}}, {"type": "Feature", "properties": {"name": "Marima", "kind": "village"}, "geometry": {"type": "Point", "coordinates": [37.6666, -0.2666]}}, {"type": "Feature", "properties": {"name": "Maralal", "kind": "town"}, "geometry": {"type": "Point", "coordinates": [36.7, 1.1]}}, {"type": "Feature", "properties": {"name": "Mado Yaka", "kind": "village"}, "geometry": {"type": "Point", "coordinates": [38.3332897, 0.7000481]}}, {"type": "Feature", "properties": {"name": "Kubi Turkana", "kind": "village"}, "geometry": {"type": "Point", "coordinates": [38.1981373, 0.5690228]}}, {"type": "Feature", "properties": {"name": "Kom", "kind": "hamlet"}, "geometry": {"type": "Point", "coordinates": [38.0363416, 1.0794598]}}, {"type": "Feature", "properties": {"name": "Korbesa", "kind": "village"}, "geometry": {"type": "Point", "coordinates": [38.35, 0.25]}}, {"type": "Feature", "properties": {"name": "Lodosoit", "kind": "village"}, "geometry": {"type": "Point", "coordinates": [37.5666, 1.35]}}, {"type": "Feature", "properties": {"name": "Longopito", "kind": "village"}, "geometry": {"type": "Point", "coordinates": [37.1576214, 0.6983013]}}, {"type": "Feature", "properties": {"name": "Lare", "kind": "town"}, "geometry": {"type": "Point", "coordinates": [37.938158, 0.3377545]}}, {"type": "Feature", "properties": {"name": "Lamuria Farm", "kind": "village"}, "geometry": {"type": "Point", "coordinates": [36.8666, -0.1833]}}, {"type": "Feature", "properties": {"name": "Kirichu", "kind": "village"}, "geometry": {"type": "Point", "coordinates": [37.0166, 0.4166]}}, {"type": "Feature", "properties": {"name": "Kinna", "kind": "village"}, "geometry": {"type": "Point", "coordinates": [38.2069906, 0.3191225]}}, {"type": "Feature", "properties": {"name": "Kijegge", "kind": "village"}, "geometry": {"type": "Point", "coordinates": [37.9333172, -0.2666269]}}, {"type": "Feature", "properties": {"name": "Kauro", "kind": "village"}, "geometry": {"type": "Point", "coordinates": [37.7, 1.05]}}, {"type": "Feature", "properties": {"name": "Kiakanyinga", "kind": "village"}, "geometry": {"type": "Point", "coordinates": [37.7, -0.2666]}}, {"type": "Feature", "properties": {"name": "Kianjai", "kind": "village"}, "geometry": {"type": "Point", "coordinates": [37.75, 0.1666]}}, {"type": "Feature", "properties": {"name": "Kianiai", "kind": "village"}, "geometry": {"type": "Point", "coordinates": [37.75, 0.1666]}}, {"type": "Feature", "properties": {"name": "Kangeta", "kind": "village"}, "geometry": {"type": "Point", "coordinates": [37.8833, 0.2833]}}, {"type": "Feature", "properties": {"name": "Kanyekine", "kind": "village"}, "geometry": {"type": "Point", "coordinates": [37.6666, 0.1166]}}, {"type": "Feature", "properties": {"name": "Kajuki", "kind": "village"}, "geometry": {"type": "Point", "coordinates": [37.8333, -0.35]}}, {"type": "Feature", "properties": {"name": "Kaongo", "kind": "village"}, "geometry": {"type": "Point", "coordinates": [37.7166, 0.0333]}}, {"type": "Feature", "properties": {"name": "Kaaga", "kind": "village"}, "geometry": {"type": "Point", "coordinates": [37.65, 0.0666]}}, {"type": "Feature", "properties": {"name": "Kaathene", "kind": "village"}, "geometry": {"type": "Point", "coordinates": [37.925878, 0.248695]}}, {"type": "Feature", "properties": {"name": "Isiolo", "kind": "town"}, "geometry": {"type": "Point", "coordinates": [37.583303, 0.35]}}, {"type": "Feature", "properties": {"name": "Gatunga", "kind": "village"}, "geometry": {"type": "Point", "coordinates": [38.0166, 0.1]}}, {"type": "Feature", "properties": {"name": "Dol Dol", "kind": "village"}, "geometry": {"type": "Point", "coordinates": [37.166502, 0.40026]}}, {"type": "Feature", "properties": {"name": "Ciakariga", "kind": "village"}, "geometry": {"type": "Point", "coordinates": [37.933292, -0.2665673]}}, {"type": "Feature", "properties": {"name": "Chuka", "kind": "town"}, "geometry": {"type": "Point", "coordinates": [37.6500021, -0.3332938]}}, {"type": "Feature", "properties": {"name": "Garba Tula", "kind": "town"}, "geometry": {"type": "Point", "coordinates": [38.514354, 0.526714]}}, {"type": "Feature", "properties": {"name": "Archers Post", "kind": "town"}, "geometry": {"type": "Point", "coordinates": [37.66707, 0.638492]}}, {"type": "Feature", "properties": {"name": "Barata", "kind": "village"}, "geometry": {"type": "Point", "coordinates": [38.3333447, 0.6999622]}}, {"type": "Feature", "properties": {"name": "Nelion", "kind": "peak"}, "geometry": {"type": "Point", "coordinates": [37.3092911, -0.1534631]}}, {"type": "Feature", "properties": {"name": "Nanteddu", "kind": "peak"}, "geometry": {"type": "Point", "coordinates": [37.2068448, 0.8228849]}}, {"type": "Feature", "properties": {"name": "Point Lenana", "kind": "peak"}, "geometry": {"type": "Point", "coordinates": [37.3177617, -0.1551556]}}, {"type": "Feature", "properties": {"name": "Mugi Hill", "kind": "peak"}, "geometry": {"type": "Point", "coordinates": [37.416816, -0.128127]}}, {"type": "Feature", "properties": {"name": "Chogoria", "kind": "village"}, "geometry": {"type": "Point", "coordinates": [37.631994, -0.228851]}}, {"type": "Feature", "properties": {"name": "Kiawara", "kind": "village"}, "geometry": {"type": "Point", "coordinates": [36.8204864, -0.2003983]}}, {"type": "Feature", "properties": {"name": "Kariene", "kind": "village"}, "geometry": {"type": "Point", "coordinates": [37.6604837, -0.0395158]}}, {"type": "Feature", "properties": {"name": "Lodungokwe", "kind": "village"}, "geometry": {"type": "Point", "coordinates": [37.0062567, 0.8700681]}}, {"type": "Feature", "properties": {"name": "Gotu", "kind": "village"}, "geometry": {"type": "Point", "coordinates": [38.077791, 0.778055]}}, {"type": "Feature", "properties": {"name": "Dida Abakiri", "kind": "village"}, "geometry": {"type": "Point", "coordinates": [38.2708775, 0.7286498]}}, {"type": "Feature", "properties": {"name": "Mitunguu", "kind": "town"}, "geometry": {"type": "Point", "coordinates": [37.7808302, -0.1083875]}}, {"type": "Feature", "properties": {"name": "Nkubu", "kind": "town"}, "geometry": {"type": "Point", "coordinates": [37.6642253, -0.0662965]}}, {"type": "Feature", "properties": {"name": "Gambela", "kind": "village"}, "geometry": {"type": "Point", "coordinates": [37.6823201, 0.3987202]}}, {"type": "Feature", "properties": {"name": "Ndumuru", "kind": "hamlet"}, "geometry": {"type": "Point", "coordinates": [37.841709, 0.4616959]}}, {"type": "Feature", "properties": {"name": "Kachulu", "kind": "village"}, "geometry": {"type": "Point", "coordinates": [38.0389298, 0.5589985]}}, {"type": "Feature", "properties": {"name": "Mutuati", "kind": "village"}, "geometry": {"type": "Point", "coordinates": [37.9789089, 0.3817323]}}, {"type": "Feature", "properties": {"name": "Kiegoi", "kind": "village"}, "geometry": {"type": "Point", "coordinates": [37.9078732, 0.2449954]}}, {"type": "Feature", "properties": {"name": "Athi", "kind": "village"}, "geometry": {"type": "Point", "coordinates": [37.9214774, 0.1705378]}}, {"type": "Feature", "properties": {"name": "Ruiri", "kind": "village"}, "geometry": {"type": "Point", "coordinates": [37.6573268, 0.1519903]}}, {"type": "Feature", "properties": {"name": "Ankamia", "kind": "village"}, "geometry": {"type": "Point", "coordinates": [37.8708859, 0.1334053]}}, {"type": "Feature", "properties": {"name": "Kigochwa", "kind": "village"}, "geometry": {"type": "Point", "coordinates": [37.8559709, 0.1473527]}}, {"type": "Feature", "properties": {"name": "Akaiga", "kind": "village"}, "geometry": {"type": "Point", "coordinates": [37.8682447, 0.1115614]}}, {"type": "Feature", "properties": {"name": "Kaathi", "kind": "village"}, "geometry": {"type": "Point", "coordinates": [37.8945947, 0.105682]}}, {"type": "Feature", "properties": {"name": "Igoji", "kind": "village"}, "geometry": {"type": "Point", "coordinates": [37.6808458, -0.1879993]}}, {"type": "Feature", "properties": {"name": "Nguruki", "kind": "village"}, "geometry": {"type": "Point", "coordinates": [37.6898637, -0.2199884]}}, {"type": "Feature", "properties": {"name": "Keria", "kind": "village"}, "geometry": {"type": "Point", "coordinates": [37.6564219, -0.2131166]}}, {"type": "Feature", "properties": {"name": "Magutuni", "kind": "village"}, "geometry": {"type": "Point", "coordinates": [37.7350321, -0.229376]}}, {"type": "Feature", "properties": {"name": "Kisima", "kind": "village"}, "geometry": {"type": "Point", "coordinates": [36.7657146, 0.9474127]}}, {"type": "Feature", "properties": {"name": "Sereolipi", "kind": "village"}, "geometry": {"type": "Point", "coordinates": [37.5997201, 1.1268532]}}, {"type": "Feature", "properties": {"name": "Kalama", "kind": "hamlet"}, "geometry": {"type": "Point", "coordinates": [37.5589849, 0.7692564]}}, {"type": "Feature", "properties": {"name": "Lodokejek", "kind": "village"}, "geometry": {"type": "Point", "coordinates": [36.8584093, 0.8547652]}}, {"type": "Feature", "properties": {"name": "Mugur", "kind": "hamlet"}, "geometry": {"type": "Point", "coordinates": [36.9700496, 0.775791]}}, {"type": "Feature", "properties": {"name": "Ndare", "kind": "village"}, "geometry": {"type": "Point", "coordinates": [37.3489735, 0.1925057]}}, {"type": "Feature", "properties": {"name": "X-lewa", "kind": "hamlet"}, "geometry": {"type": "Point", "coordinates": [37.3938053, 0.1238473]}}, {"type": "Feature", "properties": {"name": "Gatimbi", "kind": "village"}, "geometry": {"type": "Point", "coordinates": [37.6606333, -0.0097201]}}, {"type": "Feature", "properties": {"name": "Kamachege", "kind": "village"}, "geometry": {"type": "Point", "coordinates": [37.7037874, -0.0997243]}}, {"type": "Feature", "properties": {"name": "Kamurio", "kind": "village"}, "geometry": {"type": "Point", "coordinates": [37.7475609, -0.1018369]}}, {"type": "Feature", "properties": {"name": "Kiriria", "kind": "village"}, "geometry": {"type": "Point", "coordinates": [37.8169688, -0.1528596]}}, {"type": "Feature", "properties": {"name": "Tunyai", "kind": "village"}, "geometry": {"type": "Point", "coordinates": [37.8377031, -0.1753556]}}, {"type": "Feature", "properties": {"name": "Point John", "kind": "peak"}, "geometry": {"type": "Point", "coordinates": [37.3079919, -0.1579309]}}, {"type": "Feature", "properties": {"name": "Point Melhuish", "kind": "peak"}, "geometry": {"type": "Point", "coordinates": [37.3095781, -0.156651]}}, {"type": "Feature", "properties": {"name": "Midget Peak", "kind": "peak"}, "geometry": {"type": "Point", "coordinates": [37.3056589, -0.1585045]}}, {"type": "Feature", "properties": {"name": "Point Dutton", "kind": "peak"}, "geometry": {"type": "Point", "coordinates": [37.3068338, -0.1480928]}}, {"type": "Feature", "properties": {"name": "Arthur's Seat", "kind": "peak"}, "geometry": {"type": "Point", "coordinates": [37.2987367, -0.1496031]}}, {"type": "Feature", "properties": {"name": "Point Peter", "kind": "peak"}, "geometry": {"type": "Point", "coordinates": [37.3065766, -0.1457757]}}, {"type": "Feature", "properties": {"name": "Point Piggott", "kind": "peak"}, "geometry": {"type": "Point", "coordinates": [37.3027325, -0.1502784]}}, {"type": "Feature", "properties": {"name": "Point Thomson", "kind": "peak"}, "geometry": {"type": "Point", "coordinates": [37.3136278, -0.1533946]}}, {"type": "Feature", "properties": {"name": "Kipsing", "kind": "village"}, "geometry": {"type": "Point", "coordinates": [37.2444036, 0.6032117]}}, {"type": "Feature", "properties": {"name": "Isiolo east location", "kind": "village"}, "geometry": {"type": "Point", "coordinates": [37.6664581, 0.4673722]}}, {"type": "Feature", "properties": {"name": "Isiolo west location", "kind": "village"}, "geometry": {"type": "Point", "coordinates": [37.4969928, 0.4702811]}}, {"type": "Feature", "properties": {"name": "Iruma", "kind": "village"}, "geometry": {"type": "Point", "coordinates": [37.7013497, -0.242293]}}, {"type": "Feature", "properties": {"name": "Baranga", "kind": "village"}, "geometry": {"type": "Point", "coordinates": [37.6836874, -0.1025663]}}, {"type": "Feature", "properties": {"name": "Kamurita", "kind": "village"}, "geometry": {"type": "Point", "coordinates": [37.5864722, -0.0225113]}}, {"type": "Feature", "properties": {"name": "Kauru Market", "kind": "market"}, "geometry": {"type": "Point", "coordinates": [37.6363375, -0.0322933]}}, {"type": "Feature", "properties": {"name": "Loolkuniyiani", "kind": "hamlet"}, "geometry": {"type": "Point", "coordinates": [37.2293218, 1.0636424]}}, {"type": "Feature", "properties": {"name": "Kaguma Market", "kind": "market"}, "geometry": {"type": "Point", "coordinates": [37.7272684, -0.0173421]}}, {"type": "Feature", "properties": {"name": "Kiltaman", "kind": "hamlet"}, "geometry": {"type": "Point", "coordinates": [37.4816872, 0.6460552]}}, {"type": "Feature", "properties": {"name": "Thingithu", "kind": "market"}, "geometry": {"type": "Point", "coordinates": [37.0690367, 0.0241714]}}, {"type": "Feature", "properties": {"name": "Donyo Leuwa Mara", "kind": "peak"}, "geometry": {"type": "Point", "coordinates": [37.8449829, 1.0712181]}}, {"type": "Feature", "properties": {"name": "Leuwa Mara", "kind": "peak"}, "geometry": {"type": "Point", "coordinates": [37.8508623, 1.0535615]}}, {"type": "Feature", "properties": {"name": "Kimanjo", "kind": "market"}, "geometry": {"type": "Point", "coordinates": [37.01078, 0.4761714]}}, {"type": "Feature", "properties": {"name": "Mount Ololokwe", "kind": "peak"}, "geometry": {"type": "Point", "coordinates": [37.5320187, 0.8457469]}}, {"type": "Feature", "properties": {"name": "Mount Ololokwe", "kind": "peak"}, "geometry": {"type": "Point", "coordinates": [37.5376191, 0.8244685]}}, {"type": "Feature", "properties": {"name": "Nkadoru Murto (Cat and mouse)", "kind": "peak"}, "geometry": {"type": "Point", "coordinates": [37.5880554, 0.8629433]}}, {"type": "Feature", "properties": {"name": "Ngilai", "kind": "hamlet"}, "geometry": {"type": "Point", "coordinates": [37.2621628, 1.1551554]}}, {"type": "Feature", "properties": {"name": "Oromoidei", "kind": "hamlet"}, "geometry": {"type": "Point", "coordinates": [37.2040432, 1.2702432]}}, {"type": "Feature", "properties": {"name": "Sheeps Head Rock", "kind": "peak"}, "geometry": {"type": "Point", "coordinates": [37.3684816, 1.1770052]}}, {"type": "Feature", "properties": {"name": "Kigogoini shopping center", "kind": "market"}, "geometry": {"type": "Point", "coordinates": [37.0650734, -0.1650342]}}, {"type": "Feature", "properties": {"name": "Ndungamano Shoping Center", "kind": "market"}, "geometry": {"type": "Point", "coordinates": [37.063633, -0.1674911]}}, {"type": "Feature", "properties": {"name": "Ihithe Shopping Center", "kind": "market"}, "geometry": {"type": "Point", "coordinates": [37.0642768, -0.1661393]}}, {"type": "Feature", "properties": {"name": "Nanyuki open air market", "kind": "market"}, "geometry": {"type": "Point", "coordinates": [37.0694538, 0.0145579]}}, {"type": "Feature", "properties": {"name": "Ukuu Market", "kind": "market"}, "geometry": {"type": "Point", "coordinates": [37.6391061, -0.0458282]}}, {"type": "Feature", "properties": {"name": "Sotingiro Rock", "kind": "peak"}, "geometry": {"type": "Point", "coordinates": [36.8600268, 0.4479261]}}, {"type": "Feature", "properties": {"name": "Black Rock", "kind": "peak"}, "geometry": {"type": "Point", "coordinates": [37.1043991, 0.2857433]}}, {"type": "Feature", "properties": {"name": "Cairn", "kind": "peak"}, "geometry": {"type": "Point", "coordinates": [37.1244959, 0.2309303]}}, {"type": "Feature", "properties": {"name": "Observation Hill", "kind": "peak"}, "geometry": {"type": "Point", "coordinates": [37.1267524, 0.195862]}}, {"type": "Feature", "properties": {"name": "Repeater", "kind": "peak"}, "geometry": {"type": "Point", "coordinates": [37.127558, 0.1845975]}}, {"type": "Feature", "properties": {"name": "Chandler", "kind": "peak"}, "geometry": {"type": "Point", "coordinates": [37.1451214, 0.2297434]}}, {"type": "Feature", "properties": {"name": "Mlima Nchorai", "kind": "peak"}, "geometry": {"type": "Point", "coordinates": [37.0830799, 0.1470908]}}, {"type": "Feature", "properties": {"name": "Mlima ya Kihara", "kind": "peak"}, "geometry": {"type": "Point", "coordinates": [37.0908744, 0.1716329]}}, {"type": "Feature", "properties": {"name": "Ngainitu", "kind": "peak"}, "geometry": {"type": "Point", "coordinates": [37.1115081, 0.3387295]}}, {"type": "Feature", "properties": {"name": "Mwireri", "kind": "village"}, "geometry": {"type": "Point", "coordinates": [37.1448559, 0.0717373]}}, {"type": "Feature", "properties": {"name": "Murumati", "kind": "village"}, "geometry": {"type": "Point", "coordinates": [37.0765058, 0.1220971]}}, {"type": "Feature", "properties": {"name": "Jua Kali", "kind": "village"}, "geometry": {"type": "Point", "coordinates": [37.0253581, 0.1332993]}}, {"type": "Feature", "properties": {"name": "Umande", "kind": "village"}, "geometry": {"type": "Point", "coordinates": [37.151082, 0.0964766]}}, {"type": "Feature", "properties": {"name": "Soimoko", "kind": "peak"}, "geometry": {"type": "Point", "coordinates": [37.2394971, 0.2437815]}}, {"type": "Feature", "properties": {"name": "Sabuk", "kind": "village"}, "geometry": {"type": "Point", "coordinates": [36.8836886, 0.6121204]}}, {"type": "Feature", "properties": {"name": "Kolua Hills", "kind": "peak"}, "geometry": {"type": "Point", "coordinates": [37.7917976, 0.6962598]}}, {"type": "Feature", "properties": {"name": "Point Slade", "kind": "peak"}, "geometry": {"type": "Point", "coordinates": [37.3067444, -0.1543878]}}, {"type": "Feature", "properties": {"name": "Ol Doinyo Oloilei", "kind": "peak"}, "geometry": {"type": "Point", "coordinates": [37.6410667, 0.6554173]}}, {"type": "Feature", "properties": {"name": "Kalama", "kind": "peak"}, "geometry": {"type": "Point", "coordinates": [37.5451295, 0.7161382]}}, {"type": "Feature", "properties": {"name": "Ngarramat Hill", "kind": "peak"}, "geometry": {"type": "Point", "coordinates": [37.4592559, 0.6687845]}}, {"type": "Feature", "properties": {"name": "Kiltaman", "kind": "peak"}, "geometry": {"type": "Point", "coordinates": [37.5053063, 0.6396876]}}, {"type": "Feature", "properties": {"name": "Malti El Depe", "kind": "peak"}, "geometry": {"type": "Point", "coordinates": [37.5214425, 0.631384]}}, {"type": "Feature", "properties": {"name": "Kiotogorr", "kind": "peak"}, "geometry": {"type": "Point", "coordinates": [37.5601093, 0.6061727]}}, {"type": "Feature", "properties": {"name": "Lowa Mara", "kind": "peak"}, "geometry": {"type": "Point", "coordinates": [37.5517782, 0.6464085]}}, {"type": "Feature", "properties": {"name": "Dudubata", "kind": "peak"}, "geometry": {"type": "Point", "coordinates": [37.8147967, 0.6568677]}}, {"type": "Feature", "properties": {"name": "Mount Shaba", "kind": "peak"}, "geometry": {"type": "Point", "coordinates": [37.7836341, 0.6849285]}}, {"type": "Feature", "properties": {"name": "Thome Shopping Center", "kind": "market"}, "geometry": {"type": "Point", "coordinates": [36.9349192, -0.0721358]}}, {"type": "Feature", "properties": {"name": "Matanya Shopping Center", "kind": "market"}, "geometry": {"type": "Point", "coordinates": [36.9576626, -0.0639463]}}, {"type": "Feature", "properties": {"name": "Ruau Hill", "kind": "peak"}, "geometry": {"type": "Point", "coordinates": [37.9813856, -0.1725908]}}, {"type": "Feature", "properties": {"name": "Kiwanja Ndege", "kind": "hamlet"}, "geometry": {"type": "Point", "coordinates": [37.1367588, 0.3716421]}}, {"type": "Feature", "properties": {"name": "Kirimon", "kind": "village"}, "geometry": {"type": "Point", "coordinates": [36.8798243, 0.741248]}}, {"type": "Feature", "properties": {"name": "Gatimbi", "kind": "market"}, "geometry": {"type": "Point", "coordinates": [37.6603447, -0.0095281]}}, {"type": "Feature", "properties": {"name": "Kariene Market", "kind": "market"}, "geometry": {"type": "Point", "coordinates": [37.6603782, -0.0395605]}}, {"type": "Feature", "properties": {"name": "nturuba shopping centre", "kind": "market"}, "geometry": {"type": "Point", "coordinates": [37.8995094, 0.2701862]}}, {"type": "Feature", "properties": {"name": "Maritati Township", "kind": "village"}, "geometry": {"type": "Point", "coordinates": [37.3257282, 0.0848334]}}, {"type": "Feature", "properties": {"name": "TM Shopping Center", "kind": "market"}, "geometry": {"type": "Point", "coordinates": [37.5075849, 0.1840536]}}, {"type": "Feature", "properties": {"name": "Naibor", "kind": "village"}, "geometry": {"type": "Point", "coordinates": [37.0206342, 0.1669916]}}, {"type": "Feature", "properties": {"name": "Ewaso", "kind": "village"}, "geometry": {"type": "Point", "coordinates": [36.90138, 0.5594816]}}, {"type": "Feature", "properties": {"name": "nkarini market", "kind": "market"}, "geometry": {"type": "Point", "coordinates": [37.8775981, -0.2434135]}}, {"type": "Feature", "properties": {"name": "gishine market", "kind": "market"}, "geometry": {"type": "Point", "coordinates": [37.8518544, -0.2367485]}}, {"type": "Feature", "properties": {"name": "Ubarini Market", "kind": "market"}, "geometry": {"type": "Point", "coordinates": [37.8496974, -0.2291979]}}, {"type": "Feature", "properties": {"name": "murio mburaga market", "kind": "market"}, "geometry": {"type": "Point", "coordinates": [37.8492404, -0.2211067]}}, {"type": "Feature", "properties": {"name": "Kathangari Village", "kind": "village"}, "geometry": {"type": "Point", "coordinates": [37.850721, -0.2172229]}}, {"type": "Feature", "properties": {"name": "Open Air Market", "kind": "market"}, "geometry": {"type": "Point", "coordinates": [37.6449824, -0.3344666]}}, {"type": "Feature", "properties": {"name": "Keria Market", "kind": "market"}, "geometry": {"type": "Point", "coordinates": [37.6561612, -0.2123236]}}, {"type": "Feature", "properties": {"name": "Kieni Kia Ndege", "kind": "market"}, "geometry": {"type": "Point", "coordinates": [37.6774965, -0.1898776]}}, {"type": "Feature", "properties": {"name": "Ntugi Market", "kind": "market"}, "geometry": {"type": "Point", "coordinates": [37.5194624, 0.1374832]}}, {"type": "Feature", "properties": {"name": "Isiolo Market", "kind": "market"}, "geometry": {"type": "Point", "coordinates": [37.5804119, 0.3471007]}}, {"type": "Feature", "properties": {"name": "Kwa-J", "kind": "market"}, "geometry": {"type": "Point", "coordinates": [37.0141213, -0.242589]}}, {"type": "Feature", "properties": {"name": "Quba Madukani", "kind": "market"}, "geometry": {"type": "Point", "coordinates": [37.728094, -0.2247301]}}, {"type": "Feature", "properties": {"name": "Ngare Mara", "kind": "market"}, "geometry": {"type": "Point", "coordinates": [37.6433815, 0.5033284]}}, {"type": "Feature", "properties": {"name": "Sosian", "kind": "hamlet"}, "geometry": {"type": "Point", "coordinates": [36.7264421, 0.4305981]}}, {"type": "Feature", "properties": {"name": "Karandine", "kind": "market"}, "geometry": {"type": "Point", "coordinates": [37.6281615, -0.1620061]}}, {"type": "Feature", "properties": {"name": "Kathwana", "kind": "town"}, "geometry": {"type": "Point", "coordinates": [37.8676825, -0.3295867]}}, {"type": "Feature", "properties": {"name": "Bondeni Market", "kind": "market"}, "geometry": {"type": "Point", "coordinates": [37.9788431, -0.0195256]}}, {"type": "Feature", "properties": {"name": "Rahisi Shop", "kind": "market"}, "geometry": {"type": "Point", "coordinates": [37.0606634, -0.0286794]}}, {"type": "Feature", "properties": {"name": "Clothes Market", "kind": "market"}, "geometry": {"type": "Point", "coordinates": [37.2317037, 0.0782149]}}, {"type": "Feature", "properties": {"name": "Barsaloi", "kind": "hamlet"}, "geometry": {"type": "Point", "coordinates": [36.8599483, 1.3383662]}}, {"type": "Feature", "properties": {"name": "Sasaab Manyatta", "kind": "hamlet"}, "geometry": {"type": "Point", "coordinates": [37.3902702, 0.6244885]}}, {"type": "Feature", "properties": {"name": "Ngutuk", "kind": "hamlet"}, "geometry": {"type": "Point", "coordinates": [37.3477745, 0.7031482]}}, {"type": "Feature", "properties": {"name": "Marikiti Tseikuru", "kind": "market"}, "geometry": {"type": "Point", "coordinates": [38.2174266, -0.3079174]}}, {"type": "Feature", "properties": {"name": "Kwa Kamuru", "kind": "market"}, "geometry": {"type": "Point", "coordinates": [38.25658, -0.268756]}}, {"type": "Feature", "properties": {"name": "Muuna rock", "kind": "peak"}, "geometry": {"type": "Point", "coordinates": [38.2307408, -0.3153639]}}, {"type": "Feature", "properties": {"name": "Kalimani ka Tseikuru", "kind": "peak"}, "geometry": {"type": "Point", "coordinates": [38.1922364, -0.3289937]}}, {"type": "Feature", "properties": {"name": "Kalimani Rock", "kind": "peak"}, "geometry": {"type": "Point", "coordinates": [38.227532, -0.3165175]}}, {"type": "Feature", "properties": {"name": "Kalimani ka Tseikuru", "kind": "peak"}, "geometry": {"type": "Point", "coordinates": [38.1933336, -0.336107]}}, {"type": "Feature", "properties": {"name": "Kangarai", "kind": "peak"}, "geometry": {"type": "Point", "coordinates": [38.1606103, -0.2949857]}}, {"type": "Feature", "properties": {"name": "Kangarai", "kind": "peak"}, "geometry": {"type": "Point", "coordinates": [38.157072, -0.2962646]}}, {"type": "Feature", "properties": {"name": "Pink Neem Villas Kaluilaa", "kind": "village"}, "geometry": {"type": "Point", "coordinates": [38.1986565, -0.3076019]}}, {"type": "Feature", "properties": {"name": "Buulu", "kind": "hamlet"}, "geometry": {"type": "Point", "coordinates": [37.9067769, 0.4923712]}}, {"type": "Feature", "properties": {"name": "Raraiti", "kind": "hamlet"}, "geometry": {"type": "Point", "coordinates": [36.8975758, 1.2950456]}}, {"type": "Feature", "properties": {"name": "Lolasai", "kind": "peak"}, "geometry": {"type": "Point", "coordinates": [37.4138449, 0.6302884]}}, {"type": "Feature", "properties": {"name": "Ndonyio Elosai", "kind": "peak"}, "geometry": {"type": "Point", "coordinates": [37.4022443, 0.6649311]}}, {"type": "Feature", "properties": {"name": "Lowua Werikoi", "kind": "peak"}, "geometry": {"type": "Point", "coordinates": [37.240053, 1.2002072]}}, {"type": "Feature", "properties": {"name": "Lolocheni", "kind": "peak"}, "geometry": {"type": "Point", "coordinates": [37.2542823, 1.211519]}}, {"type": "Feature", "properties": {"name": "Il Polei", "kind": "village"}, "geometry": {"type": "Point", "coordinates": [37.0748641, 0.360607]}}, {"type": "Feature", "properties": {"name": "Loolkanjao", "kind": "peak"}, "geometry": {"type": "Point", "coordinates": [37.76738, 0.8595437]}}, {"type": "Feature", "properties": {"name": "Bodish", "kind": "peak"}, "geometry": {"type": "Point", "coordinates": [37.7957023, 0.7167899]}}, {"type": "Feature", "properties": {"name": "Kamanga", "kind": "peak"}, "geometry": {"type": "Point", "coordinates": [37.8993124, 0.7617858]}}, {"type": "Feature", "properties": {"name": "Malkagala", "kind": "peak"}, "geometry": {"type": "Point", "coordinates": [37.921711, 0.7297949]}}, {"type": "Feature", "properties": {"name": "Loontopi", "kind": "peak"}, "geometry": {"type": "Point", "coordinates": [37.7876635, 1.0914117]}}, {"type": "Feature", "properties": {"name": "Lekat", "kind": "peak"}, "geometry": {"type": "Point", "coordinates": [37.4149186, 0.8872485]}}, {"type": "Feature", "properties": {"name": "Loolera", "kind": "peak"}, "geometry": {"type": "Point", "coordinates": [37.4424065, 0.9028688]}}, {"type": "Feature", "properties": {"name": "Loidikidiko", "kind": "peak"}, "geometry": {"type": "Point", "coordinates": [37.4766477, 0.9066504]}}, {"type": "Feature", "properties": {"name": "Kolwua (Shap)", "kind": "peak"}, "geometry": {"type": "Point", "coordinates": [37.8269844, 0.5602143]}}, {"type": "Feature", "properties": {"name": "Shaba Mountain", "kind": "peak"}, "geometry": {"type": "Point", "coordinates": [37.8154962, 0.5934176]}}, {"type": "Feature", "properties": {"name": "Kimanjo", "kind": "village"}, "geometry": {"type": "Point", "coordinates": [37.0110888, 0.4766937]}}, {"type": "Feature", "properties": {"name": "Mosul", "kind": "hamlet"}, "geometry": {"type": "Point", "coordinates": [37.0480912, 0.4410125]}}, {"type": "Feature", "properties": {"name": "Upper Kiongone", "kind": "village"}, "geometry": {"type": "Point", "coordinates": [37.5752082, -0.1269059]}}, {"type": "Feature", "properties": {"name": "Lower Kiongone", "kind": "village"}, "geometry": {"type": "Point", "coordinates": [37.5920069, -0.1368167]}}, {"type": "Feature", "properties": {"name": "Igandene", "kind": "village"}, "geometry": {"type": "Point", "coordinates": [37.6393157, -0.1284965]}}, {"type": "Feature", "properties": {"name": "Bubui", "kind": "village"}, "geometry": {"type": "Point", "coordinates": [37.6151812, -0.1252644]}}, {"type": "Feature", "properties": {"name": "Machikine", "kind": "village"}, "geometry": {"type": "Point", "coordinates": [37.6170346, -0.0936976]}}, {"type": "Feature", "properties": {"name": "Kithatngari", "kind": "village"}, "geometry": {"type": "Point", "coordinates": [37.5776571, -0.1129504]}}, {"type": "Feature", "properties": {"name": "Upper Chure", "kind": "village"}, "geometry": {"type": "Point", "coordinates": [37.584722, -0.0951232]}}, {"type": "Feature", "properties": {"name": "Ngongo", "kind": "village"}, "geometry": {"type": "Point", "coordinates": [37.6332754, -0.1087353]}}, {"type": "Feature", "properties": {"name": "Iriene", "kind": "village"}, "geometry": {"type": "Point", "coordinates": [37.597948, -0.1075941]}}, {"type": "Feature", "properties": {"name": "Giuti", "kind": "village"}, "geometry": {"type": "Point", "coordinates": [37.6062146, -0.0819495]}}, {"type": "Feature", "properties": {"name": "Lokusero", "kind": "hamlet"}, "geometry": {"type": "Point", "coordinates": [37.2970314, 0.3082578]}}, {"type": "Feature", "properties": {"name": "Sang'a", "kind": "hamlet"}, "geometry": {"type": "Point", "coordinates": [37.3663654, 0.2803532]}}, {"type": "Feature", "properties": {"name": "T M Centre", "kind": "village"}, "geometry": {"type": "Point", "coordinates": [37.5078461, 0.184443]}}, {"type": "Feature", "properties": {"name": "Maili Nane", "kind": "village"}, "geometry": {"type": "Point", "coordinates": [37.5412879, 0.2571609]}}, {"type": "Feature", "properties": {"name": "Kiirua Market Place", "kind": "market"}, "geometry": {"type": "Point", "coordinates": [37.5590213, 0.1197352]}}, {"type": "Feature", "properties": {"name": "Katheri Market", "kind": "market"}, "geometry": {"type": "Point", "coordinates": [37.6012375, 0.0108515]}}, {"type": "Feature", "properties": {"name": "Biliqo", "kind": "village"}, "geometry": {"type": "Point", "coordinates": [38.4826271, 0.8940646]}}, {"type": "Feature", "properties": {"name": "Bulesa", "kind": "village"}, "geometry": {"type": "Point", "coordinates": [38.5364512, 0.9634138]}}, {"type": "Feature", "properties": {"name": "Malkadaka", "kind": "village"}, "geometry": {"type": "Point", "coordinates": [38.4959326, 0.8401497]}}, {"type": "Feature", "properties": {"name": "Gafarsa", "kind": "village"}, "geometry": {"type": "Point", "coordinates": [38.5935138, 0.9381272]}}, {"type": "Feature", "properties": {"name": "Marara", "kind": "hamlet"}, "geometry": {"type": "Point", "coordinates": [38.3992679, 0.8783572]}}, {"type": "Feature", "properties": {"name": "Goda", "kind": "village"}, "geometry": {"type": "Point", "coordinates": [38.548298, 1.0046708]}}, {"type": "Feature", "properties": {"name": "Awarsitu", "kind": "hamlet"}, "geometry": {"type": "Point", "coordinates": [38.5752192, 1.0251307]}}, {"type": "Feature", "properties": {"name": "Ndonyo Nasipa", "kind": "hamlet"}, "geometry": {"type": "Point", "coordinates": [37.1259631, 1.3262974]}}, {"type": "Feature", "properties": {"name": "Burat", "kind": "hamlet"}, "geometry": {"type": "Point", "coordinates": [37.5193078, 0.3161234]}}, {"type": "Feature", "properties": {"name": "Remot", "kind": "hamlet"}, "geometry": {"type": "Point", "coordinates": [37.2901223, 0.7946484]}}, {"type": "Feature", "properties": {"name": "Lenkaliwani", "kind": "hamlet"}, "geometry": {"type": "Point", "coordinates": [37.3465936, 0.7192434]}}, {"type": "Feature", "properties": {"name": "Sukuroi", "kind": "hamlet"}, "geometry": {"type": "Point", "coordinates": [37.3091157, 0.8528314]}}, {"type": "Feature", "properties": {"name": "Nakwamu", "kind": "hamlet"}, "geometry": {"type": "Point", "coordinates": [37.6994541, 0.6714984]}}, {"type": "Feature", "properties": {"name": "Dimado", "kind": "hamlet"}, "geometry": {"type": "Point", "coordinates": [38.4411447, 0.8931447]}}, {"type": "Feature", "properties": {"name": "Kom B", "kind": "village"}, "geometry": {"type": "Point", "coordinates": [38.1151664, 1.1147363]}}, {"type": "Feature", "properties": {"name": "Lakolle", "kind": "hamlet"}, "geometry": {"type": "Point", "coordinates": [38.5826052, 1.146209]}}, {"type": "Feature", "properties": {"name": "Boji", "kind": "hamlet"}, "geometry": {"type": "Point", "coordinates": [38.3370591, 0.569008]}}, {"type": "Feature", "properties": {"name": "Rapsu", "kind": "hamlet"}, "geometry": {"type": "Point", "coordinates": [38.2428295, 0.2592107]}}, {"type": "Feature", "properties": {"name": "Sionta", "kind": "hamlet"}, "geometry": {"type": "Point", "coordinates": [37.3154693, 0.8797261]}}, {"type": "Feature", "properties": {"name": "Ngutuk Elgumet", "kind": "hamlet"}, "geometry": {"type": "Point", "coordinates": [37.1031961, 0.8090907]}}, {"type": "Feature", "properties": {"name": "Ngaremara", "kind": "village"}, "geometry": {"type": "Point", "coordinates": [37.6443003, 0.5067119]}}, {"type": "Feature", "properties": {"name": "Atan", "kind": "village"}, "geometry": {"type": "Point", "coordinates": [37.6111046, 0.4903983]}}, {"type": "Feature", "properties": {"name": "Nagoroworu", "kind": "hamlet"}, "geometry": {"type": "Point", "coordinates": [37.1887743, 0.9529368]}}, {"type": "Feature", "properties": {"name": "Silango", "kind": "hamlet"}, "geometry": {"type": "Point", "coordinates": [37.2545124, 0.9400258]}}, {"type": "Feature", "properties": {"name": "Lengarde", "kind": "hamlet"}, "geometry": {"type": "Point", "coordinates": [37.1407687, 1.0507083]}}, {"type": "Feature", "properties": {"name": "Opiroi", "kind": "hamlet"}, "geometry": {"type": "Point", "coordinates": [36.8095455, 1.1586562]}}, {"type": "Feature", "properties": {"name": "Nairimirimo", "kind": "hamlet"}, "geometry": {"type": "Point", "coordinates": [36.9788319, 1.2451097]}}, {"type": "Feature", "properties": {"name": "Raap", "kind": "hamlet"}, "geometry": {"type": "Point", "coordinates": [36.9890341, 0.6015069]}}, {"type": "Feature", "properties": {"name": "Duse", "kind": "hamlet"}, "geometry": {"type": "Point", "coordinates": [38.3455349, 0.3982943]}}, {"type": "Feature", "properties": {"name": "Daaba", "kind": "village"}, "geometry": {"type": "Point", "coordinates": [37.7495355, 0.5411611]}}, {"type": "Feature", "properties": {"name": "Olarjiju", "kind": "hamlet"}, "geometry": {"type": "Point", "coordinates": [37.2453, 0.3096605]}}, {"type": "Feature", "properties": {"name": "Ol Kinyei", "kind": "hamlet"}, "geometry": {"type": "Point", "coordinates": [37.1778305, 0.3220721]}}, {"type": "Feature", "properties": {"name": "Naisunyai", "kind": "hamlet"}, "geometry": {"type": "Point", "coordinates": [37.3712158, 0.8362703]}}, {"type": "Feature", "properties": {"name": "Etop", "kind": "hamlet"}, "geometry": {"type": "Point", "coordinates": [37.7613501, 0.5596393]}}, {"type": "Feature", "properties": {"name": "Nakuprat", "kind": "hamlet"}, "geometry": {"type": "Point", "coordinates": [37.7583281, 0.5809359]}}, {"type": "Feature", "properties": {"name": "Lkisin", "kind": "hamlet"}, "geometry": {"type": "Point", "coordinates": [37.2597835, 1.0094647]}}, {"type": "Feature", "properties": {"name": "Lepusi", "kind": "peak"}, "geometry": {"type": "Point", "coordinates": [37.9024593, 1.3336664]}}, {"type": "Feature", "properties": {"name": "Narrapu", "kind": "village"}, "geometry": {"type": "Point", "coordinates": [36.9598928, 0.610385]}}, {"type": "Feature", "properties": {"name": "Barsalinga", "kind": "hamlet"}, "geometry": {"type": "Point", "coordinates": [37.1292603, 0.8081367]}}, {"type": "Feature", "properties": {"name": "Swari", "kind": "hamlet"}, "geometry": {"type": "Point", "coordinates": [37.0692103, 1.1030378]}}, {"type": "Feature", "properties": {"name": "NDAGANI", "kind": "market"}, "geometry": {"type": "Point", "coordinates": [37.6595598, -0.3207911]}}, {"type": "Feature", "properties": {"name": "ndagani", "kind": "market"}, "geometry": {"type": "Point", "coordinates": [37.6589976, -0.3206581]}}, {"type": "Feature", "properties": {"name": "Mweiga", "kind": "town"}, "geometry": {"type": "Point", "coordinates": [36.9023945, -0.3272667]}}, {"type": "Feature", "properties": {"name": "Likii", "kind": "river"}, "geometry": {"type": "Point", "coordinates": [37.2145047, -0.0588672]}}, {"type": "Feature", "properties": {"name": "Tana River", "kind": "river"}, "geometry": {"type": "Point", "coordinates": [37.9704341, -0.349055]}}, {"type": "Feature", "properties": {"name": "Ewaso Nyiro", "kind": "river"}, "geometry": {"type": "Point", "coordinates": [38.1604413, 0.8236698]}}, {"type": "Feature", "properties": {"name": "Ewaso Nyiro", "kind": "river"}, "geometry": {"type": "Point", "coordinates": [37.2309916, 0.708619]}}, {"type": "Feature", "properties": {"name": "Kipsing", "kind": "river"}, "geometry": {"type": "Point", "coordinates": [37.2154594, 0.5835354]}}, {"type": "Feature", "properties": {"name": "Tana River", "kind": "river"}, "geometry": {"type": "Point", "coordinates": [38.1900338, -0.1659579]}}, {"type": "Feature", "properties": {"name": "Uaso Nyiro", "kind": "river"}, "geometry": {"type": "Point", "coordinates": [38.2291397, 0.8258149]}}, {"type": "Feature", "properties": {"name": "Uaso Nyiro", "kind": "river"}, "geometry": {"type": "Point", "coordinates": [38.199072, 0.8235276]}}, {"type": "Feature", "properties": {"name": "Larisora", "kind": "river"}, "geometry": {"type": "Point", "coordinates": [37.6747837, 0.7030417]}}, {"type": "Feature", "properties": {"name": "Serolevi River", "kind": "river"}, "geometry": {"type": "Point", "coordinates": [37.6006429, 1.1286546]}}, {"type": "Feature", "properties": {"name": "Merille River", "kind": "river"}, "geometry": {"type": "Point", "coordinates": [37.8686376, 1.446326]}}, {"type": "Feature", "properties": {"name": "Rupingazi", "kind": "river"}, "geometry": {"type": "Point", "coordinates": [37.4326047, -0.4822757]}}, {"type": "Feature", "properties": {"name": "Ragati River", "kind": "river"}, "geometry": {"type": "Point", "coordinates": [37.1699089, -0.3868052]}}, {"type": "Feature", "properties": {"name": "Nanyuki", "kind": "river"}, "geometry": {"type": "Point", "coordinates": [36.9862635, 0.2180327]}}, {"type": "Feature", "properties": {"name": "Sirimon", "kind": "river"}, "geometry": {"type": "Point", "coordinates": [37.2063366, 0.0200101]}}, {"type": "Feature", "properties": {"name": "Kazita", "kind": "river"}, "geometry": {"type": "Point", "coordinates": [37.689918, 0.0248197]}}, {"type": "Feature", "properties": {"name": "Isiolo", "kind": "river"}, "geometry": {"type": "Point", "coordinates": [37.5726838, 0.430157]}}, {"type": "Feature", "properties": {"name": "Timau", "kind": "river"}, "geometry": {"type": "Point", "coordinates": [37.1600412, 0.1076008]}}, {"type": "Feature", "properties": {"name": "Ewaso Nyiro", "kind": "river"}, "geometry": {"type": "Point", "coordinates": [36.9876, 0.6583401]}}, {"type": "Feature", "properties": {"name": "Nziitu", "kind": "river"}, "geometry": {"type": "Point", "coordinates": [38.1988877, -0.3057666]}}, {"type": "Feature", "properties": {"name": "Mivukoni River", "kind": "river"}, "geometry": {"type": "Point", "coordinates": [38.1737885, -0.2796964]}}, {"type": "Feature", "properties": {"name": "River Katse", "kind": "river"}, "geometry": {"type": "Point", "coordinates": [38.1145345, -0.286724]}}, {"type": "Feature", "properties": {"name": "River Mũghoo", "kind": "river"}, "geometry": {"type": "Point", "coordinates": [38.1519589, -0.3753873]}}, {"type": "Feature", "properties": {"name": "Sinyai", "kind": "river"}, "geometry": {"type": "Point", "coordinates": [37.1863369, 0.2646951]}}, {"type": "Feature", "properties": {"name": "Ngare Ngiro", "kind": "river"}, "geometry": {"type": "Point", "coordinates": [36.9075463, 0.0494811]}}, {"type": "Feature", "properties": {"name": "Ngare Ngiro", "kind": "river"}, "geometry": {"type": "Point", "coordinates": [36.9003762, 0.1632963]}}, {"type": "Feature", "properties": {"name": "Lugga", "kind": "river"}, "geometry": {"type": "Point", "coordinates": [37.7440952, 1.060791]}}, {"type": "Feature", "properties": {"name": "Lugga", "kind": "river"}, "geometry": {"type": "Point", "coordinates": [37.7251455, 1.1210904]}}, {"type": "Feature", "properties": {"name": "Lugga", "kind": "river"}, "geometry": {"type": "Point", "coordinates": [37.6985099, 1.0889111]}}, {"type": "Feature", "properties": {"name": "Lugga", "kind": "river"}, "geometry": {"type": "Point", "coordinates": [37.6327811, 1.0904211]}}, {"type": "Feature", "properties": {"name": "Lugga", "kind": "river"}, "geometry": {"type": "Point", "coordinates": [37.200395, 1.3218436]}}, {"type": "Feature", "properties": {"name": "Lugga", "kind": "river"}, "geometry": {"type": "Point", "coordinates": [37.2333344, 1.1474865]}}, {"type": "Feature", "properties": {"name": "Lugga", "kind": "river"}, "geometry": {"type": "Point", "coordinates": [37.1662128, 1.2032398]}}, {"type": "Feature", "properties": {"name": "Lugga", "kind": "river"}, "geometry": {"type": "Point", "coordinates": [37.188048, 1.2395312]}}, {"type": "Feature", "properties": {"name": "Ngare Ndare", "kind": "river"}, "geometry": {"type": "Point", "coordinates": [37.3677936, 0.2515151]}}, {"type": "Feature", "properties": {"name": "Tana River", "kind": "river"}, "geometry": {"type": "Point", "coordinates": [38.4638877, -0.1509542]}}, {"type": "Feature", "properties": {"name": "Lugga", "kind": "river"}, "geometry": {"type": "Point", "coordinates": [37.192983, 0.5255697]}}, {"type": "Feature", "properties": {"name": "Sieku", "kind": "river"}, "geometry": {"type": "Point", "coordinates": [37.2587881, 0.4131925]}}, {"type": "Feature", "properties": {"name": "River Katse", "kind": "river"}, "geometry": {"type": "Point", "coordinates": [38.0982508, -0.3949146]}}, {"type": "Feature", "properties": {"name": "Maara River", "kind": "river"}, "geometry": {"type": "Point", "coordinates": [37.7625242, -0.2634714]}}, {"type": "Feature", "properties": {"name": "Nanyuki", "kind": "river"}, "geometry": {"type": "Point", "coordinates": [37.1470791, -0.0222605]}}, {"type": "Feature", "properties": {"name": "Nanyuki", "kind": "river"}, "geometry": {"type": "Point", "coordinates": [37.0511619, 0.0793293]}}, {"type": "Feature", "properties": {"name": "Isiolo", "kind": "river"}, "geometry": {"type": "Point", "coordinates": [37.5813019, 0.5716318]}}, {"type": "Feature", "properties": {"name": "Isiolo", "kind": "river"}, "geometry": {"type": "Point", "coordinates": [37.581158, 0.5673282]}}, {"type": "Feature", "properties": {"name": "Isiolo", "kind": "river"}, "geometry": {"type": "Point", "coordinates": [37.58176, 0.5673282]}}, {"type": "Feature", "properties": {"name": "Isiolo", "kind": "river"}, "geometry": {"type": "Point", "coordinates": [37.5390879, 0.1641732]}}, {"type": "Feature", "properties": {"name": "Isiolo", "kind": "river"}, "geometry": {"type": "Point", "coordinates": [37.5414174, 0.1941861]}}, {"type": "Feature", "properties": {"name": "Isiolo", "kind": "river"}, "geometry": {"type": "Point", "coordinates": [37.540525, 0.2165728]}}, {"type": "Feature", "properties": {"name": "Isiolo", "kind": "river"}, "geometry": {"type": "Point", "coordinates": [37.5429273, 0.2224786]}}, {"type": "Feature", "properties": {"name": "Isiolo", "kind": "river"}, "geometry": {"type": "Point", "coordinates": [37.5424118, 0.2350943]}}, {"type": "Feature", "properties": {"name": "Isiolo", "kind": "river"}, "geometry": {"type": "Point", "coordinates": [37.5408564, 0.2343015]}}, {"type": "Feature", "properties": {"name": "Isiolo", "kind": "river"}, "geometry": {"type": "Point", "coordinates": [37.5455403, 0.2414431]}}, {"type": "Feature", "properties": {"name": "Isiolo", "kind": "river"}, "geometry": {"type": "Point", "coordinates": [37.5450527, 0.2413178]}}, {"type": "Feature", "properties": {"name": "Isiolo", "kind": "river"}, "geometry": {"type": "Point", "coordinates": [37.5470847, 0.2463589]}}, {"type": "Feature", "properties": {"name": "East Marania", "kind": "river"}, "geometry": {"type": "Point", "coordinates": [37.5201789, 0.2243275]}}, {"type": "Feature", "properties": {"name": "Isiolo", "kind": "river"}, "geometry": {"type": "Point", "coordinates": [37.5520968, 0.2818815]}}, {"type": "Feature", "properties": {"name": "Isiolo", "kind": "river"}, "geometry": {"type": "Point", "coordinates": [37.5486633, 0.2673]}}, {"type": "Feature", "properties": {"name": "Isiolo", "kind": "river"}, "geometry": {"type": "Point", "coordinates": [37.5436244, 0.2116721]}}, {"type": "Feature", "properties": {"name": "Sinyai", "kind": "river"}, "geometry": {"type": "Point", "coordinates": [37.1172988, 0.4744176]}}, {"type": "Feature", "properties": {"name": "Sinyai", "kind": "river"}, "geometry": {"type": "Point", "coordinates": [37.1915826, 0.6142329]}}, {"type": "Feature", "properties": {"name": "nagorr oworu river", "kind": "river"}, "geometry": {"type": "Point", "coordinates": [37.3379568, 0.9840686]}}, {"type": "Feature", "properties": {"name": "nagorr owouru river", "kind": "river"}, "geometry": {"type": "Point", "coordinates": [37.2859348, 0.9894921]}}, {"type": "Feature", "properties": {"name": "River Itivanguu", "kind": "river"}, "geometry": {"type": "Point", "coordinates": [38.2046902, -0.1609944]}}, {"type": "Feature", "properties": {"name": "R Itivanguu", "kind": "river"}, "geometry": {"type": "Point", "coordinates": [38.2035106, -0.154428]}}, {"type": "Feature", "properties": {"name": "itung'uni river", "kind": "river"}, "geometry": {"type": "Point", "coordinates": [38.2036721, -0.1616295]}}, {"type": "Feature", "properties": {"name": "Itung'uni river", "kind": "river"}, "geometry": {"type": "Point", "coordinates": [38.2052226, -0.1706519]}}, {"type": "Feature", "properties": {"name": "Riveer Nzanze", "kind": "river"}, "geometry": {"type": "Point", "coordinates": [38.2083827, -0.2237384]}}, {"type": "Feature", "properties": {"name": "Nziitu", "kind": "river"}, "geometry": {"type": "Point", "coordinates": [38.2033476, -0.309451]}}, {"type": "Feature", "properties": {"name": "Muuna", "kind": "river"}, "geometry": {"type": "Point", "coordinates": [38.2309684, -0.3148545]}}, {"type": "Feature", "properties": {"name": "Kwa Kasanga", "kind": "river"}, "geometry": {"type": "Point", "coordinates": [38.2361874, -0.3150891]}}, {"type": "Feature", "properties": {"name": "kwa kasanga", "kind": "river"}, "geometry": {"type": "Point", "coordinates": [38.2357917, -0.3154709]}}, {"type": "Feature", "properties": {"name": "Kamanga", "kind": "river"}, "geometry": {"type": "Point", "coordinates": [38.2425944, -0.3188703]}}, {"type": "Feature", "properties": {"name": "Kwa Kamanga", "kind": "river"}, "geometry": {"type": "Point", "coordinates": [38.2411692, -0.3156154]}}, {"type": "Feature", "properties": {"name": "Kamunyu", "kind": "river"}, "geometry": {"type": "Point", "coordinates": [38.2473221, -0.3157455]}}, {"type": "Feature", "properties": {"name": "Kyambevo", "kind": "river"}, "geometry": {"type": "Point", "coordinates": [38.2461618, -0.3119139]}}, {"type": "Feature", "properties": {"name": "Ngiluni River", "kind": "river"}, "geometry": {"type": "Point", "coordinates": [38.215254, -0.3212298]}}, {"type": "Feature", "properties": {"name": "mulangoni river", "kind": "river"}, "geometry": {"type": "Point", "coordinates": [38.3369995, -0.2368544]}}, {"type": "Feature", "properties": {"name": "Kaningo River", "kind": "river"}, "geometry": {"type": "Point", "coordinates": [38.3305576, -0.2542825]}}, {"type": "Feature", "properties": {"name": "Ilusi-Ikya", "kind": "river"}, "geometry": {"type": "Point", "coordinates": [38.3927529, -0.2432911]}}, {"type": "Feature", "properties": {"name": "Nziitu", "kind": "river"}, "geometry": {"type": "Point", "coordinates": [38.2501951, -0.362418]}}, {"type": "Feature", "properties": {"name": "Mivukoni River", "kind": "river"}, "geometry": {"type": "Point", "coordinates": [38.2241027, -0.3840316]}}, {"type": "Feature", "properties": {"name": "Kyunyu River", "kind": "river"}, "geometry": {"type": "Point", "coordinates": [38.1955279, -0.2564142]}}, {"type": "Feature", "properties": {"name": "Ngare mara river", "kind": "river"}, "geometry": {"type": "Point", "coordinates": [37.6485592, 0.4683799]}}, {"type": "Feature", "properties": {"name": "Ngare Ndare", "kind": "river"}, "geometry": {"type": "Point", "coordinates": [37.3824044, 0.277727]}}, {"type": "Feature", "properties": {"name": "Sera", "kind": "river"}, "geometry": {"type": "Point", "coordinates": [38.0866924, 1.103984]}}, {"type": "Feature", "properties": {"name": "Ngare Ndare", "kind": "river"}, "geometry": {"type": "Point", "coordinates": [37.3756659, 0.3482014]}}, {"type": "Feature", "properties": {"name": "Makutano River", "kind": "river"}, "geometry": {"type": "Point", "coordinates": [38.144846, 0.2225667]}}, {"type": "Feature", "properties": {"name": "Mutundu River", "kind": "river"}, "geometry": {"type": "Point", "coordinates": [38.1416975, 0.2035468]}}, {"type": "Feature", "properties": {"name": "Kasaini River", "kind": "river"}, "geometry": {"type": "Point", "coordinates": [38.4749133, -0.2030495]}}, {"type": "Feature", "properties": {"name": "River Kasaini", "kind": "river"}, "geometry": {"type": "Point", "coordinates": [38.4160277, -0.3052568]}}, {"type": "Feature", "properties": {"name": "Mutw'anyinyi River", "kind": "river"}, "geometry": {"type": "Point", "coordinates": [38.2633029, -0.2813754]}}, {"type": "Feature", "properties": {"name": "Ewaso Nyiro", "kind": "river"}, "geometry": {"type": "Point", "coordinates": [37.4802495, 0.5784609]}}, {"type": "Feature", "properties": {"name": "Ewaso Nyiro", "kind": "river"}, "geometry": {"type": "Point", "coordinates": [37.529768, 0.5647167]}}, {"type": "Feature", "properties": {"name": "Ewaso Nyiro", "kind": "river"}, "geometry": {"type": "Point", "coordinates": [37.5886227, 0.594986]}}, {"type": "Feature", "properties": {"name": "Ewaso Nyiro", "kind": "river"}, "geometry": {"type": "Point", "coordinates": [37.6593803, 0.6307069]}}, {"type": "Feature", "properties": {"name": "Kazita", "kind": "river"}, "geometry": {"type": "Point", "coordinates": [37.5047196, 0.0183887]}}, {"type": "Feature", "properties": {"name": "Kazita", "kind": "river"}, "geometry": {"type": "Point", "coordinates": [37.5388091, 0.0225475]}}, {"type": "Feature", "properties": {"name": "Likii", "kind": "river"}, "geometry": {"type": "Point", "coordinates": [37.0853505, 0.0248395]}}, {"type": "Feature", "properties": {"name": "Likii", "kind": "river"}, "geometry": {"type": "Point", "coordinates": [37.1161183, -0.0155517]}}, {"type": "Feature", "properties": {"name": "Ngare Ndare", "kind": "river"}, "geometry": {"type": "Point", "coordinates": [37.3567513, 0.2218611]}}, {"type": "Feature", "properties": {"name": "Ngare Ndare", "kind": "river"}, "geometry": {"type": "Point", "coordinates": [37.3745977, 0.2687413]}}, {"type": "Feature", "properties": {"name": "Ngare Ndare", "kind": "river"}, "geometry": {"type": "Point", "coordinates": [37.3540404, 0.2140521]}}, {"type": "Feature", "properties": {"name": "Ngare Ndare", "kind": "river"}, "geometry": {"type": "Point", "coordinates": [37.35911, 0.2294173]}}, {"type": "Feature", "properties": {"name": "Ngare Ndare", "kind": "river"}, "geometry": {"type": "Point", "coordinates": [37.3549858, 0.2155912]}}, {"type": "Feature", "properties": {"name": "Ngare Ndare", "kind": "river"}, "geometry": {"type": "Point", "coordinates": [37.3594242, 0.23332]}}, {"type": "Feature", "properties": {"name": "Ewaso Nyiro", "kind": "river"}, "geometry": {"type": "Point", "coordinates": [37.3690028, 0.6060155]}}, {"type": "Feature", "properties": {"name": "Ngare Ndare", "kind": "river"}, "geometry": {"type": "Point", "coordinates": [37.3589025, 0.4598781]}}, {"type": "Feature", "properties": {"name": "Ngare Ndare", "kind": "river"}, "geometry": {"type": "Point", "coordinates": [37.369158, 0.5095082]}}, {"type": "Feature", "properties": {"name": "Ewaso Nyiro", "kind": "river"}, "geometry": {"type": "Point", "coordinates": [37.4126071, 0.578514]}}, {"type": "Feature", "properties": {"name": "Ngare Ndare", "kind": "river"}, "geometry": {"type": "Point", "coordinates": [37.3828248, 0.5426895]}}, {"type": "Feature", "properties": {"name": "Ewaso Nyiro", "kind": "river"}, "geometry": {"type": "Point", "coordinates": [37.6468619, 0.6259248]}}, {"type": "Feature", "properties": {"name": "Ewaso Nyiro", "kind": "river"}, "geometry": {"type": "Point", "coordinates": [37.6916178, 0.6504422]}}, {"type": "Feature", "properties": {"name": "Larisora", "kind": "river"}, "geometry": {"type": "Point", "coordinates": [37.7067134, 0.6700072]}}, {"type": "Feature", "properties": {"name": "Larisora", "kind": "river"}, "geometry": {"type": "Point", "coordinates": [37.6264408, 0.7169487]}}]}