{"type": "FeatureCollection", "features": [{"type": "Feature", "properties": {"ward": "Bulla Pesa", "county": "Isiolo", "source": "kenya_adm3_wards.geojson"}, "geometry": {"type": "Polygon", "coordinates": [[[37.59146260314339, 0.335182472674986], [37.598846185524486, 0.341788869579108], [37.60346959937501, 0.350548862243217], [37.588626007539126, 0.352738859136879], [37.58789599482589, 0.360282177805982], [37.57840582955376, 0.359795512272446], [37.574025753274356, 0.362228839679841], [37.56623895099979, 0.353712190924384], [37.56222388107694, 0.341180536456182], [37.566117282214215, 0.337530536913261], [37.57378241570324, 0.333758869280025], [37.57889250469592, 0.327918864935832], [37.58570595668616, 0.329622199890851], [37.59146260314339, 0.335182472674986]]]}}]}