{"type": "FeatureCollection", "features": [{"type": "Feature", "properties": {"ward": "Burat", "county": "Isiolo", "source": "kenya_adm3_wards.geojson"}, "geometry": {"type": "Polygon", "coordinates": [[[37.57889250469592, 0.327918864935832], [37.57378241570324, 0.333758869280025], [37.566117282214215, 0.337530536913261], [37.56222388107694, 0.341180536456182], [37.56623895099979, 0.353712190924384], [37.574025753274356, 0.362228839679841], [37.577919154411624, 0.366122162170872], [37.58229923069106, 0.374638799201392], [37.58692264454159, 0.38704874114721], [37.58516702934977, 0.40346265229851], [37.581945312804194, 0.419580822323233], [37.583849786263485, 0.459186950509107], [37.59026853614397, 0.480487680284108], [37.59197189914152, 0.492897448660391], [37.592336905498136, 0.505063865801106], [37.5946486124234, 0.517351923994749], [37.598542013560674, 0.529518294803178], [37.60061038291486, 0.533654855466491], [37.60097538927148, 0.549957743730843], [37.59866368234621, 0.553850964242247], [37.59440527485232, 0.56248903809429], [37.58625346622112, 0.566260587468002], [37.586131797435584, 0.570275459911078], [37.58199505872723, 0.574898642890651], [37.57359991252496, 0.574533654896387], [37.5625722734303, 0.575387769190553], [37.55103077169258, 0.575387769190553], [37.54590121536471, 0.575387769190553], [37.538072627147265, 0.570883773673815], [37.52794776821716, 0.570258469219515], [37.525382990053224, 0.570258469219515], [37.520253433725344, 0.571540794642349], [37.512559099233535, 0.572823119778908], [37.50101759749582, 0.579234741144748], [37.49204087392204, 0.584364033018616], [37.48947609575811, 0.592057962035089], [37.48302719754079, 0.593779925014157], [37.467675481364644, 0.595904922548282], [37.450957776700584, 0.582563385358177], [37.44779438827655, 0.582685047853336], [37.44459247788922, 0.584364033018616], [37.43118659905033, 0.582745879099923], [37.418944696249845, 0.581799387664544], [37.400586899486996, 0.581650916560823], [37.40046523070146, 0.574351160890502], [37.40277693762672, 0.570092965769727], [37.39839686134728, 0.558170002754176], [37.386473320364345, 0.558170002754176], [37.38233658165599, 0.546003689049908], [37.38440495101017, 0.529944117352201], [37.38233658165599, 0.525564226882804], [37.37442811059588, 0.517534419730576], [37.36582182884695, 0.502872075116001], [37.35925779035506, 0.493044238184534], [37.361560915081725, 0.478404839280973], [37.35034733664219, 0.451761076044646], [37.35129850998703, 0.435246749252531], [37.35551362698678, 0.410237761791197], [37.36680163456007, 0.404593040278753], [37.37496848081864, 0.376573649367958], [37.37921185068515, 0.371743365179213], [37.38019127689675, 0.360174125602461], [37.39091423103649, 0.352840295454051], [37.392909234641735, 0.343334250436322], [37.39431093194668, 0.321502662847509], [37.396241531503115, 0.307880078467447], [37.38862971359317, 0.284483729814402], [37.399579904291784, 0.282464563867695], [37.40720797540473, 0.294743964325105], [37.43174876671097, 0.296020997664759], [37.46588058290181, 0.281372695455355], [37.522708715258354, 0.265141617878159], [37.53652062868837, 0.260172333974045], [37.54498716606075, 0.275142461371183], [37.550271049727904, 0.294294011906616], [37.54805804976002, 0.306134501708087], [37.55027421399687, 0.318124219175641], [37.557407407270766, 0.327395008888986], [37.573072359860866, 0.327308689190446], [37.57889250469592, 0.327918864935832]]]}}]}