{"type": "FeatureCollection", "features": [{"type": "Feature", "properties": {"ward": "Chari", "county": "Isiolo", "source": "kenya_adm3_wards.geojson"}, "geometry": {"type": "Polygon", "coordinates": [[[38.20759670557906, 1.473255879081695], [37.94284542824053, 1.261126045514168], [37.943626372950305, 1.198579624613644], [38.02883687512547, 1.08575572327165], [38.04090340100448, 0.808765394480828], [38.071680738971715, 0.786966893934373], [38.08300786918446, 0.788154792854732], [38.08495456975312, 0.801780385165799], [38.09468807259645, 0.803726894669271], [38.11026167714578, 0.815405932129955], [38.119995179989104, 0.819298937111428], [38.13556878453842, 0.815405932129955], [38.14140888624443, 0.809566417604554], [38.149195688519086, 0.811512923383787], [38.156982490793744, 0.821245438184814], [38.16866269420574, 0.827084935708484], [38.178396197049075, 0.827084935708484], [38.18910305017673, 0.821245438184814], [38.1968898524514, 0.823191938310267], [38.20272995415739, 0.830977929288113], [38.20857005586339, 0.833897671956082], [38.21441015756938, 0.831951177084256], [38.21733020842238, 0.828058184462088], [38.224143660412714, 0.827084935708484], [38.22901041183438, 0.828058184462088], [38.23193046268738, 0.830004681252182], [38.235823863824706, 0.832924424640343], [38.242637315815045, 0.830004681252182], [38.2475040672367, 0.827084935708484], [38.253344168942704, 0.825138437485574], [38.256264219795696, 0.824165188016842], [38.26307767178603, 0.829031432976756], [38.26891777349202, 0.830977929288113], [38.273784524913694, 0.830977929288113], [38.27573122548236, 0.828058184462088], [38.28059797690402, 0.825138437485574], [38.28935812946301, 0.822218688366169], [38.30103833287501, 0.822218688366169], [38.31174518600267, 0.826111686716223], [38.31661193742433, 0.830004681252182], [38.32050533856167, 0.836817412458397], [38.32439873969899, 0.838763904919732], [38.329265491120665, 0.837790658809932], [38.33218554197366, 0.835844165865395], [38.337052293395324, 0.839737150787491], [38.339972344248324, 0.841683641795808], [38.34678579623865, 0.841683641795808], [38.34775914652298, 0.833897671956082], [38.354572598513315, 0.826111686716223], [38.357492649366314, 0.826111686716223], [38.36138605050363, 0.830977929288113], [38.36138605050363, 0.833897671956082], [38.36138605050363, 0.842656886935781], [38.366252801925306, 0.847523108982775], [38.3720929036313, 0.851416082220022], [38.375012954484305, 0.853362567365686], [38.3779330053373, 0.850442839278538], [38.38182640647462, 0.844603376486017], [38.38571980761196, 0.844603376486017], [38.39350660988662, 0.850442839278538], [38.394479960170955, 0.853362567365686], [38.39350660988662, 0.859202016883883], [38.39934671159262, 0.864068218000283], [38.40713351386729, 0.866014696703504], [38.42173376813228, 0.866014696703504], [38.4402274235346, 0.866014696703504], [38.44704087552493, 0.866014696703504], [38.457747728652585, 0.866014696703504], [38.46845458178025, 0.866014696703504], [38.473321333201916, 0.866987935680427], [38.47721473433925, 0.873800601498242], [38.48013478519224, 0.876720311643715], [38.48694823718258, 0.876720311643715], [38.48889493775125, 0.872827364278436], [38.49473503945723, 0.868934412883444], [38.50738859315357, 0.866014696703504], [38.510308644006564, 0.866014696703504], [38.5112819942909, 0.872827364278436], [38.510308644006564, 0.880613254961319], [38.516776338031654, 0.884581040117652], [38.52101549713423, 0.887425895973339], [38.520042146849896, 0.895211756045941], [38.52296219770289, 0.903970828859426], [38.527828949124554, 0.909810199009883], [38.53464240111488, 0.914676333585071], [38.54437590395821, 0.916622785569598], [38.548269305095545, 0.922462135166458], [38.54924265537988, 0.929274697580929], [38.55216270623288, 0.933167584496306], [38.55702945765454, 0.937060467103482], [38.55702945765454, 0.940953345384494], [38.55702945765454, 0.943873001245392], [38.55702945765454, 0.947765871912384], [38.55800280793887, 0.950685522042127], [38.57261461182438, 0.964365502370751], [38.57699468810387, 0.987235906403558], [38.5808880892412, 0.995508141593603], [38.5823481146677, 1.002320554974635], [38.585754840662865, 1.009619553559498], [38.5925682926532, 1.019838123981443], [38.602301795496516, 1.021297917111306], [38.60883360759749, 1.041339797933], [38.49586047572353, 1.160513234974326], [38.46349657876947, 1.212819590389282], [38.439892834374405, 1.249311800414813], [38.4343873218286, 1.25723358455955], [38.44217412410327, 1.259179815763418], [38.4431474743876, 1.261126045514168], [38.44996092637793, 1.26599161351892], [38.45482767779959, 1.276695830938543], [38.45482767779959, 1.28253447622466], [38.45872107893692, 1.279615155242875], [38.464561180642924, 1.28253447622466], [38.467481231495924, 1.283507582478931], [38.47137463263325, 1.2874000037903], [38.47526803377058, 1.289346212218598], [38.47916143490791, 1.292265522070541], [38.48305483604525, 1.294211726774867], [38.485001536613915, 1.294211726774867], [38.48889493775125, 1.296157929985681], [38.49084163831991, 1.29907723199664], [38.49181498860424, 1.302969629429652], [38.529814802761244, 1.324937574517585], [38.56089864730152, 1.349449691199834], [38.61087354483806, 1.393929256088025], [38.65285660484711, 1.434962154394082], [38.60016669171039, 1.437571369634562], [38.53063494377247, 1.417500546596376], [38.503752053248746, 1.421827689619497], [38.415893666426285, 1.402223682291103], [38.362359400787966, 1.421684777126431], [38.333158892257984, 1.425576976479217], [38.31369188657133, 1.433361355426891], [38.29227818031601, 1.448930033788118], [38.20759670557906, 1.473255879081695]]]}}]}