{"type": "FeatureCollection", "features": [{"type": "Feature", "properties": {"ward": "Cherab", "county": "Isiolo", "source": "kenya_adm3_wards.geojson"}, "geometry": {"type": "Polygon", "coordinates": [[[38.96065406696363, 2.097249376415018], [38.63601105281831, 1.904213694656947], [38.37987970590596, 1.752496458976638], [38.33705229339531, 1.569583575391536], [38.20759670557906, 1.473255879081695], [38.29227818031601, 1.448930033788118], [38.31369188657133, 1.433361355426891], [38.333158892257984, 1.425576976479217], [38.362359400787966, 1.421684777126431], [38.415893666426285, 1.402223682291103], [38.503752053248746, 1.421827689619497], [38.53063494377247, 1.417500546596376], [38.60016669171039, 1.437571369634562], [38.65285660484711, 1.434962154394082], [38.61087354483806, 1.393929256088025], [38.56089864730152, 1.349449691199834], [38.529814802761244, 1.324937574517585], [38.49181498860424, 1.302969629429652], [38.49084163831991, 1.29907723199664], [38.48889493775125, 1.296157929985681], [38.485001536613915, 1.294211726774867], [38.48305483604525, 1.294211726774867], [38.47916143490791, 1.292265522070541], [38.47526803377058, 1.289346212218598], [38.47137463263325, 1.2874000037903], [38.467481231495924, 1.283507582478931], [38.464561180642924, 1.28253447622466], [38.45872107893692, 1.279615155242875], [38.45482767779959, 1.28253447622466], [38.45482767779959, 1.276695830938543], [38.44996092637793, 1.26599161351892], [38.4431474743876, 1.261126045514168], [38.44217412410327, 1.259179815763418], [38.4343873218286, 1.25723358455955], [38.439892834374405, 1.249311800414813], [38.46349657876947, 1.212819590389282], [38.49586047572353, 1.160513234974326], [38.60883360759749, 1.041339797933], [38.602301795496516, 1.021297917111306], [38.61300864862422, 1.018621629199994], [38.62371550175188, 1.016188638257906], [38.631258966455455, 1.012539148405017], [38.64123580686987, 1.013025747290119], [38.648779271573446, 1.015702039849125], [38.65354322178545, 1.028648367220874], [38.658409973207114, 1.03813698894364], [38.665466762768524, 1.045192612292838], [38.672523552329935, 1.051518330098011], [38.67909366674918, 1.054924480534705], [38.68444709331301, 1.057844035084619], [38.68882716959251, 1.064656318338561], [38.69515394644067, 1.068062454326988], [38.70367076142858, 1.070495406293884], [38.713647601842986, 1.070981996455742], [38.71754100298032, 1.072685061413664], [38.71900102840682, 1.078524134064247], [38.7192443659779, 1.086066252982134], [38.72119106654657, 1.089229071450665], [38.72435445497065, 1.093851646315435], [38.72678783068148, 1.098474214059311], [38.73335794510073, 1.101637019449911], [38.73822469652239, 1.105529698397685], [38.74065807223322, 1.11307174931974], [38.74041473466213, 1.120857071973139], [38.74211809765972, 1.12669605038848], [38.74698484908138, 1.129372244921403], [38.751364925360875, 1.133021597130228], [38.765721842054816, 1.141992901738173], [38.79090728066192, 1.158049946370814], [38.81086096149074, 1.167659800864339], [38.81711116462349, 1.17522095633453], [38.83579189371774, 1.182012511558157], [38.84698542198743, 1.186878223109599], [38.85550223697523, 1.190284216104028], [38.868642465813565, 1.190527501157075], [38.87229252937978, 1.195149913081214], [38.880079331654336, 1.190770786188659], [38.89200287263726, 1.186878223109599], [38.90076302519614, 1.185175225038602], [38.91073986561044, 1.190527501157075], [38.91657996731635, 1.195149913081214], [38.9209600435958, 1.195149913081214], [38.928746845870364, 1.191500641154563], [38.93507362271845, 1.186634937735062], [38.94091372442437, 1.190040931029505], [38.95356727812053, 1.190770786188659], [38.95940737982646, 1.198069327131957], [38.97181759595154, 1.204637997360249], [38.983011124221235, 1.203664862027261], [38.99396131491984, 1.205611132345679], [39.00199145476548, 1.202935010299607], [39.01026493218221, 1.199042464457932], [39.0311919632951, 1.198312611495867], [39.04335884184911, 1.190284216104028], [39.05576905797421, 1.182499083097537], [39.0803461526533, 1.178849794475608], [39.088132954927865, 1.173984068875503], [39.108573310898585, 1.174227355356912], [39.116846788315314, 1.166442177473456], [39.128526991727156, 1.165712315940381], [39.15407743669057, 1.137734148992068], [39.16989437881078, 1.126056224753295], [39.173787779948064, 1.113405087381234], [39.17841119379859, 1.10561974505146], [39.18668467121531, 1.100997188374222], [39.20420497633308, 1.098807553760483], [39.21028841561008, 1.102700236406568], [39.21515516703168, 1.100753895718721], [39.23145878429405, 1.100997188374222], [39.23997559928186, 1.097347796459467], [39.251655802693705, 1.100267310348178], [39.264066018818795, 1.096131331497715], [39.268202757527156, 1.092725226977659], [39.292049839493004, 1.092725226977659], [39.31711360931427, 1.075937941361987], [39.32782046244179, 1.072045224204708], [39.338527315569316, 1.061340226557504], [39.36213105996409, 1.058420675298077], [39.38208474079267, 1.05185167492672], [39.415421988030644, 1.023142549204436], [39.43002224229545, 1.015600278354443], [39.460942713818326, 1.004600631284051], [39.44463380138313, 1.045032988704531], [39.33830545199178, 1.287105510576596], [39.27689330683375, 1.465713222189098], [39.43064053409619, 1.523084731883545], [39.45473016003722, 1.529652298680272], [39.40384420502409, 1.552069770873868], [39.35625762761061, 1.621742871585522], [39.34239132506997, 1.639935021725565], [39.325925090802954, 1.650330461959824], [39.31205878826232, 1.664190964348965], [39.297325841812885, 1.665923520314596], [39.283459539272236, 1.681516455247714], [39.26612666109643, 1.684981535022474], [39.248793782920636, 1.696243001650988], [39.21586131438661, 1.706638143447287], [39.18726206539653, 1.74821814528272], [39.177728982399834, 1.788931004839519], [39.15855993337222, 1.797249090066403], [39.135199526548234, 1.824489286773673], [39.146879729960226, 1.842000624344736], [39.115732520861584, 1.873131465106836], [39.09626551517493, 1.886751034538228], [39.05927820437027, 1.912044237100694], [39.05343810266428, 1.931500293376854], [39.04370459982095, 1.94706497808803], [39.02618429470295, 1.966520631707532], [39.002823887878975, 1.989867116431328], [38.9950370856043, 1.999594721074112], [38.987250283329644, 2.03850456023462], [38.98919698389831, 2.061850013438606], [38.96065406696363, 2.097249376415018]]]}}]}