{"type": "FeatureCollection", "features": [{"type": "Feature", "properties": {"ward": "Garbatulla", "county": "Isiolo", "source": "kenya_adm3_wards.geojson"}, "geometry": {"type": "Polygon", "coordinates": [[[38.751369300140276, -0.035147265992853], [38.747546170181295, -0.026736994813997], [38.7414377505313, -0.013299453772513], [38.736692667895234, 0.007140902060307], [38.73000088469053, 0.039383127145676], [38.72513413326893, 0.061283499958979], [38.72416078298461, 0.095837402047654], [38.728540859264044, 0.115791048747449], [38.728540859264044, 0.149858216655125], [38.7548213169407, 0.176625240590797], [38.751901266087735, 0.195118798598652], [38.74460113895534, 0.218965724696346], [38.709582028425224, 0.360717765753754], [38.66764563210135, 0.509139610477904], [38.65158535241005, 0.509869594327669], [38.64306853742226, 0.517412755907268], [38.64331187499334, 0.525442563214694], [38.64331187499334, 0.574107835540272], [38.65158535241005, 0.578731015419059], [38.65547875354734, 0.587004064725064], [38.65985882982678, 0.606956662364354], [38.66399556853515, 0.619366167825287], [38.666185606674865, 0.623259340048976], [38.66764563210135, 0.631288998651821], [38.666185606674865, 0.643941768801804], [38.67251238352294, 0.64832156656821], [38.676162447089155, 0.652458038758249], [38.68443592450588, 0.656107864337691], [38.70757890674853, 0.686806734815077], [38.71585238416527, 0.691186514899075], [38.728019262719265, 0.699216101555139], [38.73580606499383, 0.707488995119253], [38.74042947884435, 0.711625436557845], [38.74432287998164, 0.715031915047139], [38.74821628111892, 0.715761874405399], [38.75648975853564, 0.719168349921168], [38.76038315967293, 0.720141628188271], [38.76889997466074, 0.72744120875664], [38.777416789648534, 0.731820951614116], [38.78082351564366, 0.739607150890202], [38.783013553783384, 0.742526972212856], [38.78325689135446, 0.747636655024332], [38.78082351564366, 0.752016378560625], [38.777173452077456, 0.760045860622901], [38.76451989838131, 0.772698348360035], [38.76062649724402, 0.772698348360035], [38.752353019827304, 0.777078047162974], [38.740186141273284, 0.778781262175], [38.72801926271928, 0.780727792799021], [38.719989122873635, 0.784620851419862], [38.71536570902311, 0.789487169746674], [38.721449148300124, 0.796056690706424], [38.72217916101336, 0.805545980785506], [38.723882524010925, 0.809439016671551], [38.72607256215064, 0.813575363319919], [38.72801926271927, 0.821604730320783], [38.727775925148194, 0.834257034296026], [38.7214618212117, 0.817530096037623], [38.72535522234898, 0.830182351213514], [38.729248623486264, 0.838454957826547], [38.73314202462355, 0.843077877476357], [38.73581873790543, 0.847214169370064], [38.73533206276327, 0.871058589121728], [38.733872037336795, 0.874708232041673], [38.72900528591519, 0.883953978241139], [38.72292184663818, 0.895632782724438], [38.723165184209265, 0.908284779045353], [38.72121848364062, 0.911934385192157], [38.72097514606954, 0.920450118499769], [38.723165184209265, 0.920693424868779], [38.723165184209265, 0.936751608422556], [38.72121848364062, 0.940887795387321], [38.72121848364061, 0.953296326867236], [38.71708174493226, 0.961325352932548], [38.71318834379497, 0.969354360177742], [38.709051605086614, 0.977626650822005], [38.70442819123609, 0.986385524648984], [38.691979389209365, 0.994311516109486], [38.68832932564317, 1.00282703764625], [38.68394924936372, 1.010855937664641], [38.679569173084275, 1.019371415987692], [38.68005584822644, 1.023264198589336], [38.675919109518084, 1.031293047765835], [38.672025708380794, 1.03542911368991], [38.665466762768524, 1.045192612292838], [38.658409973207114, 1.03813698894364], [38.65354322178545, 1.028648367220874], [38.648779271573446, 1.015702039849125], [38.64123580686987, 1.013025747290119], [38.631258966455455, 1.012539148405017], [38.62371550175188, 1.016188638257906], [38.61300864862422, 1.018621629199994], [38.602301795496516, 1.021297917111306], [38.5925682926532, 1.019838123981443], [38.585754840662865, 1.009619553559498], [38.5823481146677, 1.002320554974635], [38.5808880892412, 0.995508141593603], [38.57699468810387, 0.987235906403558], [38.57261461182438, 0.964365502370751], [38.55800280793887, 0.950685522042127], [38.55702945765454, 0.947765871912384], [38.55702945765454, 0.943873001245392], [38.55702945765454, 0.940953345384494], [38.55702945765454, 0.937060467103482], [38.55216270623288, 0.933167584496306], [38.54924265537988, 0.929274697580929], [38.548269305095545, 0.922462135166458], [38.54437590395821, 0.916622785569598], [38.53464240111488, 0.914676333585071], [38.527828949124554, 0.909810199009883], [38.52296219770289, 0.903970828859426], [38.520042146849896, 0.895211756045941], [38.52101549713423, 0.887425895973339], [38.516776338031654, 0.884581040117652], [38.510308644006564, 0.880613254961319], [38.5112819942909, 0.872827364278436], [38.510308644006564, 0.866014696703504], [38.50738859315357, 0.866014696703504], [38.49473503945723, 0.868934412883444], [38.48889493775125, 0.872827364278436], [38.48694823718258, 0.876720311643715], [38.48013478519224, 0.876720311643715], [38.47721473433925, 0.873800601498242], [38.473321333201916, 0.866987935680427], [38.46845458178025, 0.866014696703504], [38.457747728652585, 0.866014696703504], [38.44704087552493, 0.866014696703504], [38.4402274235346, 0.866014696703504], [38.42173376813228, 0.866014696703504], [38.40713351386729, 0.866014696703504], [38.39934671159262, 0.864068218000283], [38.39350660988662, 0.859202016883883], [38.394479960170955, 0.853362567365686], [38.39350660988662, 0.850442839278538], [38.38571980761196, 0.844603376486017], [38.38182640647462, 0.844603376486017], [38.3779330053373, 0.850442839278538], [38.375012954484305, 0.853362567365686], [38.3720929036313, 0.851416082220022], [38.366252801925306, 0.847523108982775], [38.36138605050363, 0.842656886935781], [38.36138605050363, 0.833897671956082], [38.36138605050363, 0.830977929288113], [38.357492649366314, 0.826111686716223], [38.361709470860745, 0.823570925962308], [38.36584620956911, 0.81943461245504], [38.369982948277475, 0.815298294676796], [38.376066387554474, 0.810918659456835], [38.37411968698583, 0.798996295203463], [38.37314633670152, 0.790723613929619], [38.37825642569421, 0.782450916170349], [38.384583202542295, 0.772474994250377], [38.382149826831494, 0.766148787708463], [38.38166315168933, 0.761769100779935], [38.377769750552055, 0.753982979710227], [38.373876349414765, 0.747900062928428], [38.37801308812313, 0.741817137716251], [38.382393164402565, 0.725758175159228], [38.38628656553984, 0.709212517751385], [38.387503253395245, 0.697046555375653], [38.38233233000981, 0.696864065699394], [38.37430219016416, 0.692727631144808], [38.369678776313634, 0.688834512971172], [38.36578537517635, 0.684454751225108], [38.36383867460772, 0.680561626314536], [38.35945859832827, 0.676425177654495], [38.35994527347043, 0.666692343408517], [38.35775523533071, 0.664502453041809], [38.35337515905127, 0.660365990814221], [38.349481757913985, 0.656229525144574], [38.3455883567767, 0.652336377859907], [38.341451618068334, 0.643820107698901], [38.33743654814552, 0.635790468515315], [38.33329980943716, 0.631532321447009], [38.33123144008298, 0.623502663217587], [38.32904140194326, 0.615472992741872], [38.32916307072879, 0.61157981481667], [38.325148000805974, 0.607321648228333], [38.32088959331208, 0.599048629287911], [38.31699619217479, 0.591140584799257], [38.3127377846809, 0.586760739919319], [38.31054774654117, 0.582867541591151], [38.31066941532671, 0.580555953809287], [38.30458597604971, 0.580677616347715], [38.300692574912425, 0.570822942300438], [38.32703386698183, 0.464123784678668], [38.32508716641319, 0.460230510210591], [38.32314046584455, 0.456337233617458], [38.32484382884211, 0.452443954917245], [38.3287372299794, 0.439304123985649], [38.33311730625885, 0.43176087722647], [38.33749738253828, 0.423487630245048], [38.34090410853341, 0.415457705611412], [38.34358082181529, 0.41132107457516], [38.34382415938636, 0.399641163675955], [38.34382415938636, 0.397451178518807], [38.345284184812854, 0.395261192780991], [38.34917758595012, 0.390881219576143], [38.3533143246585, 0.387474572169587], [38.36134446450414, 0.383337927049813], [38.36596787835465, 0.378471283175787], [38.37813475690867, 0.377011289479522], [38.382271495617026, 0.367034659385833], [38.38592155918323, 0.362411339209116], [38.39005829789159, 0.353894690623182], [38.393951699028875, 0.350488028988847], [38.40441521458531, 0.347811365406319], [38.40441521458533, 0.332724702095003], [38.41293202957312, 0.322504691197147], [38.41487873014176, 0.315448010997578], [38.41122866657557, 0.309607996174602], [38.410741991433405, 0.301091302141825], [38.415122067712836, 0.292574601456332], [38.41877213127905, 0.284787898024887], [38.42315220755849, 0.280407875023951], [38.42071883184769, 0.268484470849131], [38.42461223298496, 0.264104441878243], [38.426802271124686, 0.256317719913222], [38.42315220755849, 0.248044322641394], [38.42242219484525, 0.239770920197601], [38.41950214399228, 0.235147546055153], [38.41852879370797, 0.219817399951431], [38.4204754942766, 0.214707347698974], [38.420718831847694, 0.206677262153011], [38.41682543071041, 0.204973910146339], [38.41682543071041, 0.194023785842792], [38.42266553241633, 0.186723699011972], [38.427288946266856, 0.182586981788057], [38.42947898440658, 0.178206927219913], [38.42947898440657, 0.167256786299188], [38.431912360117366, 0.162633391608614], [38.43556242368358, 0.160443362173208], [38.43994249996301, 0.155333292584502], [38.44772930223758, 0.154846619225262], [38.46354624435779, 0.153873272473298], [38.46792632063723, 0.146329833661311], [38.47157638420343, 0.142436444886707], [38.479606524049075, 0.138543055454415], [38.48398660032852, 0.133432980856525], [38.48812333903688, 0.125402861502475], [38.492016740174165, 0.11858942496111], [38.49420677831389, 0.10812592989798], [38.498830192164405, 0.108369267034773], [38.50491363144141, 0.100582477711608], [38.512213758573814, 0.093769035524976], [38.51695884120989, 0.080628821933174], [38.521095579918246, 0.07649208711429], [38.5234072868435, 0.067001929293571], [38.53046407640483, 0.066515254481772], [38.53727752839507, 0.056781757284551], [38.54031924803356, 0.046439914723392], [38.54360430524315, 0.043763202271043], [38.543969311599774, 0.034151370446468], [38.54932273816353, 0.031839663904689], [38.55358114565744, 0.027337919441162], [38.55358114565744, 0.023687856237441], [38.55126943873217, 0.015414379309575], [38.55321613930081, 0.011399309497496], [38.557596215580254, 0.007384239629439], [38.55978625371997, 0.003855844866301], [38.55978625371997, 0.001422469158264], [38.565991361782515, -0.005147645253818], [38.56964142534873, -0.017557861111041], [38.57815824033654, -0.021329593244908], [38.59032511889055, -0.025222994060164], [38.59446185759891, -0.029481401067851], [38.602978672586715, -0.029846407375545], [38.604578677768764, -0.031808165423228], [38.60847207890605, -0.036309909960303], [38.61638054996614, -0.039594966669478], [38.62441068981178, -0.047503436055773], [38.628304090949065, -0.05188351108038], [38.63244082965743, -0.056020248359677], [38.64047096950308, -0.056263585838838], [38.64898778449087, -0.048233448577272], [38.65300285441371, -0.047868442317375], [38.66127633183043, -0.05237018606716], [38.66979314681822, -0.056750260794461], [38.68031586976629, -0.058018627557619], [38.68769351526033, -0.046633444395322], [38.736100791751866, -0.070905900664724], [38.76038714443366, -0.074046699948718], [38.761953781677974, -0.054928619544968], [38.75162169691403, -0.046260019627931], [38.751369300140276, -0.035147265992853]]]}}]}