{"type": "FeatureCollection", "features": [{"type": "Feature", "properties": {"ward": "Kinna", "county": "Isiolo", "source": "kenya_adm3_wards.geojson"}, "geometry": {"type": "Polygon", "coordinates": [[[38.162172662575024, 0.371232145371973], [38.16849943942311, 0.353955523855326], [38.173852865986866, 0.337652203586842], [38.17722611573668, 0.328246156958196], [38.18309969368792, 0.330108866967413], [38.19331987167328, 0.324025526809933], [38.19295486531665, 0.309425495659242], [38.1922248526034, 0.23934508317035], [38.19392821560098, 0.23228835338311], [38.21461190914278, 0.224014941566872], [38.23529560268459, 0.215011517524112], [38.251599219946954, 0.202844719883412], [38.25938602222151, 0.19505796455852], [38.26765949963824, 0.183377824860988], [38.29588665788354, 0.162937562344815], [38.30075340930514, 0.149797382470367], [38.30513348558459, 0.139090563382395], [38.30464681044243, 0.117190236889215], [38.30864726870295, 0.113443580680187], [38.30875824220434, 0.111889951660675], [38.31852391032699, 0.107451011604928], [38.3200775393465, 0.106563223593778], [38.32533050398424, 0.096749916650466], [38.32435715369992, 0.084583053352749], [38.328980567550445, 0.076309584098225], [38.336279670549985, 0.06960904762968], [38.34114744610445, 0.064629389541009], [38.34249418662803, 0.060176300011217], [38.34552752238389, 0.051489167477864], [38.34793188819632, 0.047969214857911], [38.34571241816845, 0.044085142309132], [38.34804286169772, 0.041754698779865], [38.353557662229534, 0.02861544153701], [38.370104617062985, 0.011095137539503], [38.39881845045044, -0.013725294510059], [38.402711851587725, -0.025162159673275], [38.40636191515393, -0.038059048950499], [38.41098532900444, -0.058195225750106], [38.41093641775026, -0.065684812256637], [38.419731743598035, -0.070808396412983], [38.43124345355954, -0.0791777003698], [38.447607633452, -0.07827056102594], [38.455637773297646, -0.078635567040387], [38.45965284322047, -0.078635567040387], [38.47181972177448, -0.074133825977102], [38.47997153040567, -0.070362096624617], [38.48836667660793, -0.057951888304024], [38.50418361872815, -0.057708550856885], [38.52121724870375, -0.054788501411377], [38.534114139970995, -0.040918264731333], [38.54214427981665, -0.020721249358184], [38.54944440694905, -0.013421122554751], [38.554067820799574, -0.012934447425456], [38.558204559507935, -0.014151135246842], [38.56964142534873, -0.017557861111041], [38.565991361782515, -0.005147645253818], [38.55978625371997, 0.001422469158264], [38.55978625371997, 0.003855844866301], [38.557596215580254, 0.007384239629439], [38.55321613930081, 0.011399309497496], [38.55126943873217, 0.015414379309575], [38.55358114565744, 0.023687856237441], [38.55358114565744, 0.027337919441162], [38.54932273816353, 0.031839663904689], [38.543969311599774, 0.034151370446468], [38.54360430524315, 0.043763202271043], [38.54031924803356, 0.046439914723392], [38.53727752839507, 0.056781757284551], [38.53046407640483, 0.066515254481772], [38.5234072868435, 0.067001929293571], [38.521095579918246, 0.07649208711429], [38.51695884120989, 0.080628821933174], [38.512213758573814, 0.093769035524976], [38.50491363144141, 0.100582477711608], [38.498830192164405, 0.108369267034773], [38.49420677831389, 0.10812592989798], [38.492016740174165, 0.11858942496111], [38.48812333903688, 0.125402861502475], [38.48398660032852, 0.133432980856525], [38.479606524049075, 0.138543055454415], [38.47157638420343, 0.142436444886707], [38.46792632063723, 0.146329833661311], [38.46354624435779, 0.153873272473298], [38.44772930223758, 0.154846619225262], [38.43994249996301, 0.155333292584502], [38.43556242368358, 0.160443362173208], [38.431912360117366, 0.162633391608614], [38.42947898440657, 0.167256786299188], [38.42947898440658, 0.178206927219913], [38.427288946266856, 0.182586981788057], [38.42266553241633, 0.186723699011972], [38.41682543071041, 0.194023785842792], [38.41682543071041, 0.204973910146339], [38.420718831847694, 0.206677262153011], [38.4204754942766, 0.214707347698974], [38.41852879370797, 0.219817399951431], [38.41950214399228, 0.235147546055153], [38.42242219484525, 0.239770920197601], [38.42315220755849, 0.248044322641394], [38.426802271124686, 0.256317719913222], [38.42461223298496, 0.264104441878243], [38.42071883184769, 0.268484470849131], [38.42315220755849, 0.280407875023951], [38.41877213127905, 0.284787898024887], [38.415122067712836, 0.292574601456332], [38.410741991433405, 0.301091302141825], [38.41122866657557, 0.309607996174602], [38.41487873014176, 0.315448010997578], [38.41293202957312, 0.322504691197147], [38.40441521458533, 0.332724702095003], [38.40441521458531, 0.347811365406319], [38.393951699028875, 0.350488028988847], [38.39005829789159, 0.353894690623182], [38.38592155918323, 0.362411339209116], [38.382271495617026, 0.367034659385833], [38.37813475690867, 0.377011289479522], [38.36596787835465, 0.378471283175787], [38.36134446450414, 0.383337927049813], [38.3533143246585, 0.387474572169587], [38.34917758595012, 0.390881219576143], [38.345284184812854, 0.395261192780991], [38.34382415938636, 0.397451178518807], [38.34382415938636, 0.399641163675955], [38.34358082181529, 0.41132107457516], [38.34090410853341, 0.415457705611412], [38.33749738253828, 0.423487630245048], [38.33311730625885, 0.43176087722647], [38.3287372299794, 0.439304123985649], [38.32484382884211, 0.452443954917245], [38.32314046584455, 0.456337233617458], [38.32508716641319, 0.460230510210591], [38.32703386698183, 0.464123784678668], [38.300692574912425, 0.570822942300438], [38.30458597604971, 0.580677616347715], [38.31066941532671, 0.580555953809287], [38.31054774654117, 0.582867541591151], [38.3127377846809, 0.586760739919319], [38.31699619217479, 0.591140584799257], [38.32088959331208, 0.599048629287911], [38.325148000805974, 0.607321648228333], [38.32916307072879, 0.61157981481667], [38.32904140194326, 0.615472992741872], [38.33123144008298, 0.623502663217587], [38.33329980943716, 0.631532321447009], [38.33743654814552, 0.635790468515315], [38.341451618068334, 0.643820107698901], [38.3455883567767, 0.652336377859907], [38.349481757913985, 0.656229525144574], [38.35337515905127, 0.660365990814221], [38.35775523533071, 0.664502453041809], [38.35994527347043, 0.666692343408517], [38.35945859832827, 0.676425177654495], [38.36383867460772, 0.680561626314536], [38.36578537517635, 0.684454751225108], [38.369678776313634, 0.688834512971172], [38.37430219016416, 0.692727631144808], [38.38233233000981, 0.696864065699394], [38.387503253395245, 0.697046555375653], [38.38628656553984, 0.709212517751385], [38.382393164402565, 0.725758175159228], [38.37801308812313, 0.741817137716251], [38.373876349414765, 0.747900062928428], [38.377769750552055, 0.753982979710227], [38.38166315168933, 0.761769100779935], [38.382149826831494, 0.766148787708463], [38.384583202542295, 0.772474994250377], [38.37825642569421, 0.782450916170349], [38.37314633670152, 0.790723613929619], [38.37411968698583, 0.798996295203463], [38.376066387554474, 0.810918659456835], [38.369982948277475, 0.815298294676796], [38.36584620956911, 0.81943461245504], [38.361709470860745, 0.823570925962308], [38.357492649366314, 0.826111686716223], [38.354572598513315, 0.826111686716223], [38.34775914652298, 0.833897671956082], [38.34678579623865, 0.841683641795808], [38.339972344248324, 0.841683641795808], [38.337052293395324, 0.839737150787491], [38.33218554197366, 0.835844165865395], [38.329265491120665, 0.837790658809932], [38.32439873969899, 0.838763904919732], [38.32050533856167, 0.836817412458397], [38.31661193742433, 0.830004681252182], [38.31174518600267, 0.826111686716223], [38.30103833287501, 0.822218688366169], [38.28935812946301, 0.822218688366169], [38.28059797690402, 0.825138437485574], [38.27573122548236, 0.828058184462088], [38.273784524913694, 0.830977929288113], [38.26891777349202, 0.830977929288113], [38.26307767178603, 0.829031432976756], [38.256264219795696, 0.824165188016842], [38.253344168942704, 0.825138437485574], [38.2475040672367, 0.827084935708484], [38.21649453787279, 0.812898284141836], [38.20920900236985, 0.796253340334867], [38.19759808417847, 0.792182940943743], [38.193298310860726, 0.772338922744946], [38.19666706999735, 0.760469784383921], [38.17437718662284, 0.720227781273475], [38.14511925665161, 0.704144316278402], [38.143254935358385, 0.671714192514155], [38.11735527754286, 0.647852079621764], [38.11425320615209, 0.625555769052781], [38.088530186022645, 0.599501082722752], [38.13370216675865, 0.456884725766108], [38.14903243373669, 0.41186856998295], [38.15487253544262, 0.395078693943386], [38.162172662575024, 0.371232145371973]]]}}]}