{"type": "FeatureCollection", "features": [{"type": "Feature", "properties": {"ward": "Ngare Mara", "county": "Isiolo", "source": "kenya_adm3_wards.geojson"}, "geometry": {"type": "Polygon", "coordinates": [[[38.088530186022645, 0.599501082722752], [38.11425320615209, 0.625555769052781], [38.11735527754286, 0.647852079621764], [38.143254935358385, 0.671714192514155], [38.14511925665161, 0.704144316278402], [38.17437718662284, 0.720227781273475], [38.19666706999735, 0.760469784383921], [38.193298310860726, 0.772338922744946], [38.19759808417847, 0.792182940943743], [38.20920900236985, 0.796253340334867], [38.21649453787279, 0.812898284141836], [38.2475040672367, 0.827084935708484], [38.242637315815045, 0.830004681252182], [38.235823863824706, 0.832924424640343], [38.23193046268738, 0.830004681252182], [38.22901041183438, 0.828058184462088], [38.224143660412714, 0.827084935708484], [38.21733020842238, 0.828058184462088], [38.21441015756938, 0.831951177084256], [38.20857005586339, 0.833897671956082], [38.20272995415739, 0.830977929288113], [38.1968898524514, 0.823191938310267], [38.18910305017673, 0.821245438184814], [38.178396197049075, 0.827084935708484], [38.16866269420574, 0.827084935708484], [38.156982490793744, 0.821245438184814], [38.149195688519086, 0.811512923383787], [38.14140888624443, 0.809566417604554], [38.13556878453842, 0.815405932129955], [38.119995179989104, 0.819298937111428], [38.11026167714578, 0.815405932129955], [38.09468807259645, 0.803726894669271], [38.08495456975312, 0.801780385165799], [38.08300786918446, 0.788154792854732], [38.071680738971715, 0.786966893934373], [38.063620946287564, 0.778314561162554], [38.04859773549629, 0.783120087804948], [38.04351441305979, 0.790570382346492], [38.03113538054837, 0.791210242697876], [38.02687697305447, 0.79449498538889], [38.016291788712486, 0.797049783454813], [38.01081669336318, 0.791088585511165], [38.002421547160914, 0.786830581732979], [37.99426973852973, 0.778314561162554], [37.98599626111301, 0.77454317511932], [37.97833112762399, 0.762134074861015], [37.96567757392782, 0.750211572302329], [37.94949562545099, 0.741817137716251], [37.94134381681981, 0.734030981252414], [37.93331367697416, 0.725514857103054], [37.92929860705134, 0.721743425561756], [37.92066012327799, 0.717242035436141], [37.91287332100344, 0.71712037618198], [37.90881732556174, 0.719006145906019], [37.90046310487835, 0.725271539033788], [37.89377132167364, 0.734639275216173], [37.89109460839176, 0.737680743791507], [37.884889500329216, 0.741208844733999], [37.8802660864787, 0.741087186127513], [37.875764341413706, 0.733787663643731], [37.86773420156808, 0.725514857103054], [37.855688991799596, 0.71712037618198], [37.84747634877566, 0.705136923890231], [37.84741551438289, 0.692970950924652], [37.84376545081668, 0.688591192979528], [37.843582947638374, 0.684576411327739], [37.83524863582889, 0.68068328651565], [37.822899254096555, 0.678310912041032], [37.802702235696906, 0.674782763236854], [37.7941854207091, 0.674417782179812], [37.79029201957181, 0.676486007807442], [37.78201854215509, 0.676729328411609], [37.778003472232264, 0.676607668111046], [37.774231739880534, 0.676486007807442], [37.76583659367826, 0.672227895263319], [37.76036149832896, 0.672227895263319], [37.74965464520145, 0.672836197283206], [37.74125949899918, 0.668456421051305], [37.737366097861894, 0.664319962134051], [37.73359436551016, 0.660183499754153], [37.72507755052235, 0.657871945747566], [37.72158851959436, 0.660020522261429], [37.712611796020596, 0.661302826092674], [37.707482239692716, 0.663867432760756], [37.70235268336484, 0.667714340267269], [37.69222697842653, 0.660670142566099], [37.687968570932625, 0.652032225601226], [37.68431850736643, 0.648017414067655], [37.679816762301435, 0.639866120277487], [37.67215162881242, 0.635851299162342], [37.655604673978964, 0.631714813535948], [37.64757453413333, 0.623806817162547], [37.6423427763551, 0.61164064574351], [37.635407655579314, 0.599109460355318], [37.630905910514336, 0.598622811797115], [37.62299743945423, 0.598744473940721], [37.614845630823055, 0.595094608460699], [37.60280042105458, 0.590958091331382], [37.58637513500667, 0.586821571121748], [37.58223839629831, 0.578305196376802], [37.58199505872723, 0.574898642890651], [37.586131797435584, 0.570275459911078], [37.58625346622112, 0.566260587468002], [37.59440527485232, 0.56248903809429], [37.59866368234621, 0.553850964242247], [37.60097538927148, 0.549957743730843], [37.60061038291486, 0.533654855466491], [37.598542013560674, 0.529518294803178], [37.5946486124234, 0.517351923994749], [37.592336905498136, 0.505063865801106], [37.59197189914152, 0.492897448660391], [37.59026853614397, 0.480487680284108], [37.60267875226905, 0.484745936708395], [37.60880675385132, 0.487313306875519], [37.62275410188317, 0.492897448660391], [37.64343779542498, 0.50068395822535], [37.66010641904397, 0.505185529858414], [37.675820877005464, 0.511006149423072], [37.69259198478317, 0.516986932507332], [37.699347259300936, 0.519273675276901], [37.70463719455164, 0.521245165217773], [37.72757459450501, 0.523749508082358], [37.737366097861916, 0.533168201414757], [37.759836545235146, 0.540250925870308], [37.76607993124938, 0.541684641735184], [37.77746566843813, 0.547190446721251], [37.782505217297285, 0.54959275417742], [37.80659563683422, 0.557987508233168], [37.82715766159048, 0.566138924623185], [37.84358294763841, 0.570275459911078], [37.85964322732969, 0.578183533787422], [37.90321251720485, 0.599167660436518], [37.98577680224174, 0.63886843056011], [38.064107621429734, 0.676607668111046], [38.088530186022645, 0.599501082722752]]]}}]}