{"type": "FeatureCollection", "features": [{"type": "Feature", "properties": {"name": "Oldonyiro", "county": "Isiolo"}, "geometry": {"type": "Polygon", "coordinates": [[[37.36582182884695, 0.502872075116001], [37.37442811059588, 0.517534419730576], [37.38233658165599, 0.525564226882804], [37.38440495101017, 0.529944117352201], [37.38233658165599, 0.546003689049908], [37.386473320364345, 0.558170002754176], [37.39839686134728, 0.558170002754176], [37.40277693762672, 0.570092965769727], [37.40046523070146, 0.574351160890502], [37.400586899486996, 0.581650916560823], [37.392014525528516, 0.581799387664544], [37.371496300217025, 0.593340282503574], [37.362519576643244, 0.592057962035089], [37.362519576643244, 0.601034199050593], [37.35097807490553, 0.604881153268386], [37.35097807490553, 0.61642199949078], [37.347130907659626, 0.635656687384477], [37.34328374041372, 0.647197465871565], [37.32661268234813, 0.65617360878663], [37.3202007369383, 0.680537343451594], [37.309941624282544, 0.693360312547624], [37.30352967887271, 0.711312410790981], [37.2996825116268, 0.722853008610209], [37.28942339897105, 0.739522709116623], [37.27916428631531, 0.748498675857317], [37.260120286580886, 0.764202260735922], [37.25479889375791, 0.763886004550153], [37.240692613856254, 0.762603729248204], [37.232998279364445, 0.757474624227025], [37.2265863339546, 0.751063234418593], [37.22145677762673, 0.745934115796358], [37.223132975776714, 0.741999625594682], [37.21504483221689, 0.74080499119599], [37.20735049772508, 0.742087272904276], [37.2022209413972, 0.743369554240869], [37.20093855231524, 0.747216396013969], [37.1945266069054, 0.747216396013969], [37.18554988333162, 0.745934115796358], [37.17785554883981, 0.745934115796358], [37.16887882526603, 0.742087272904276], [37.16246687985619, 0.745934115796358], [37.15733732352832, 0.753627791475073], [37.15092537811847, 0.753627791475073], [37.1457958217906, 0.760039177499014], [37.135536709134854, 0.761321453564271], [37.12912476372501, 0.769015101925278], [37.1214304292332, 0.779273278145235], [37.116300872905335, 0.783120087804948], [37.10604176024958, 0.783120087804948], [37.099629814839744, 0.786966893934373], [37.07269964411841, 0.779273278145235], [37.068370280569724, 0.765844642927292], [37.059853465581924, 0.768399458418062], [37.05170165695073, 0.765844642927292], [37.01933775999707, 0.754043808835295], [37.009862579101956, 0.754910069437403], [36.99447391011834, 0.753627791475073], [36.97652046297078, 0.744651835205109], [36.93548401234779, 0.752345513135249], [36.93061022728832, 0.743459329332847], [36.93268736173832, 0.736739188465203], [36.929754936632435, 0.734784238394615], [36.926211589629496, 0.731607444529911], [36.9262115896295, 0.699228583985805], [36.92584503649127, 0.693974655671101], [36.92608940525009, 0.682000586488752], [36.92486756145597, 0.675769183138755], [36.921935136350086, 0.665016957750523], [36.91875834248538, 0.662328901403466], [36.9126491235148, 0.662573270162289], [36.911916017238326, 0.65768589498582], [36.91240475475597, 0.653531626085822], [36.91240475475597, 0.651332307256411], [36.909716698408914, 0.650599200979941], [36.90629553578538, 0.646689300838766], [36.90678427330303, 0.644489982009355], [36.907761748338324, 0.642535031938767], [36.910449804685385, 0.638136394279945], [36.908983592132444, 0.636181444209358], [36.90727301082068, 0.63422649413877], [36.90580679826774, 0.634470862897594], [36.89578767915598, 0.6334933878623], [36.89383272908539, 0.628850381444655], [36.89163341025598, 0.627139800132891], [36.888700985150095, 0.624207375027009], [36.88625729756186, 0.618831262332894], [36.8845467162501, 0.617365049779953], [36.88283613493834, 0.616631943503483], [36.87892623479716, 0.615410099709365], [36.87770439100304, 0.611988937085837], [36.87550507217363, 0.610522724532897], [36.87428322837952, 0.609545249497603], [36.869640221961866, 0.605879718115251], [36.866707796855984, 0.601481080456429], [36.8647528467854, 0.596838074038784], [36.86768527189128, 0.592439436379962], [36.867440903132454, 0.588773904997611], [36.86573032182069, 0.582664686027025], [36.86353100299128, 0.58022099843879], [36.86426410926775, 0.572853271677278], [36.870795785049545, 0.571772750446006], [36.8771069497007, 0.567846550097133], [36.89049051611011, 0.566873248324077], [36.922611075492696, 0.562980039585254], [36.957651685728244, 0.558113524978003], [36.99561234681674, 0.553247006310494], [37.05583839565908, 0.550261901675006], [37.08313897387184, 0.540032437769583], [37.106302813376246, 0.539892291569747], [37.14329012418043, 0.535999063533315], [37.183684160979745, 0.531497515518758], [37.19722951754625, 0.529788263647998], [37.22103647814055, 0.527117627800871], [37.249263636385855, 0.524076037285996], [37.290144348327324, 0.519452816864959], [37.3228732516376, 0.51555957597929], [37.35180054523614, 0.512507655796697], [37.36582182884695, 0.502872075116001]]]}}]}