{"type": "FeatureCollection", "features": [{"type": "Feature", "properties": {"ward": "Sericho", "county": "Isiolo", "source": "kenya_adm3_wards.geojson"}, "geometry": {"type": "Polygon", "coordinates": [[[38.665466762768524, 1.045192612292838], [38.672025708380794, 1.03542911368991], [38.675919109518084, 1.031293047765835], [38.68005584822644, 1.023264198589336], [38.679569173084275, 1.019371415987692], [38.68394924936372, 1.010855937664641], [38.68832932564317, 1.00282703764625], [38.691979389209365, 0.994311516109486], [38.70442819123609, 0.986385524648984], [38.709051605086614, 0.977626650822005], [38.71318834379497, 0.969354360177742], [38.71708174493226, 0.961325352932548], [38.72121848364061, 0.953296326867236], [38.72121848364062, 0.940887795387321], [38.723165184209265, 0.936751608422556], [38.723165184209265, 0.920693424868779], [38.72097514606954, 0.920450118499769], [38.72121848364062, 0.911934385192157], [38.723165184209265, 0.908284779045353], [38.72292184663818, 0.895632782724438], [38.72900528591519, 0.883953978241139], [38.733872037336795, 0.874708232041673], [38.73533206276327, 0.871058589121728], [38.73581873790543, 0.847214169370064], [38.73314202462355, 0.843077877476357], [38.729248623486264, 0.838454957826547], [38.72535522234898, 0.830182351213514], [38.7214618212117, 0.817530096037623], [38.727775925148194, 0.834257034296026], [38.72801926271927, 0.821604730320783], [38.72607256215064, 0.813575363319919], [38.723882524010925, 0.809439016671551], [38.72217916101336, 0.805545980785506], [38.721449148300124, 0.796056690706424], [38.71536570902311, 0.789487169746674], [38.719989122873635, 0.784620851419862], [38.72801926271928, 0.780727792799021], [38.740186141273284, 0.778781262175], [38.752353019827304, 0.777078047162974], [38.76062649724402, 0.772698348360035], [38.76451989838131, 0.772698348360035], [38.777173452077456, 0.760045860622901], [38.78082351564366, 0.752016378560625], [38.78325689135446, 0.747636655024332], [38.783013553783384, 0.742526972212856], [38.78082351564366, 0.739607150890202], [38.777416789648534, 0.731820951614116], [38.76889997466074, 0.72744120875664], [38.76038315967293, 0.720141628188271], [38.75648975853564, 0.719168349921168], [38.74821628111892, 0.715761874405399], [38.74432287998164, 0.715031915047139], [38.74042947884435, 0.711625436557845], [38.73580606499383, 0.707488995119253], [38.728019262719265, 0.699216101555139], [38.71585238416527, 0.691186514899075], [38.70757890674853, 0.686806734815077], [38.68443592450588, 0.656107864337691], [38.676162447089155, 0.652458038758249], [38.67251238352294, 0.64832156656821], [38.666185606674865, 0.643941768801804], [38.66764563210135, 0.631288998651821], [38.666185606674865, 0.623259340048976], [38.66399556853515, 0.619366167825287], [38.65985882982678, 0.606956662364354], [38.65547875354734, 0.587004064725064], [38.65158535241005, 0.578731015419059], [38.64331187499334, 0.574107835540272], [38.64331187499334, 0.525442563214694], [38.64306853742226, 0.517412755907268], [38.65158535241005, 0.509869594327669], [38.66764563210135, 0.509139610477904], [38.680542523368594, 0.509382938437015], [38.691979389209365, 0.509382938437015], [38.69976619148393, 0.509382938437015], [38.71266308275118, 0.51692610059073], [38.717286496601695, 0.524955908518568], [38.72872336244246, 0.520576014553346], [38.74186359128078, 0.525685890548547], [38.74527031727592, 0.525929217872921], [38.75427380740588, 0.517169428253668], [38.76157393453828, 0.517169428253668], [38.77812088937174, 0.525685890548547], [38.786637704359535, 0.541015493283648], [38.81462152503376, 0.574594486230389], [38.826545066016685, 0.587004064725064], [38.839198619712846, 0.591140584799257], [38.851852173409014, 0.598440318576649], [38.85939563811251, 0.599900264170218], [38.86839912824247, 0.599656939931656], [38.87642926808812, 0.594790452894814], [38.892976222921554, 0.595520426224755], [38.91531174819381, 0.594752720835375], [38.92431523832378, 0.603025731788725], [38.93575210416455, 0.616895162587916], [38.955462447422036, 0.617381808620784], [38.967872663547126, 0.613001992701005], [38.97687615367709, 0.613731962274291], [38.984906293522734, 0.617625131620265], [38.98855635708894, 0.618111777585273], [38.99366644608162, 0.614218608600279], [39.00534664949347, 0.61884174644787], [39.013133451768034, 0.629791267080752], [39.02092025404261, 0.646093843305923], [39.02919373145932, 0.658746552515346], [39.04257729786873, 0.67091258833567], [39.04939074985897, 0.674075752645657], [39.055375139112854, 0.677633111834235], [39.06491683565211, 0.68034751671939], [39.07429827366487, 0.675526638325617], [39.08604453212949, 0.675673456478302], [39.0973503059017, 0.679050272771608], [39.10058052697947, 0.686978440923488], [39.1088029079047, 0.686978440923488], [39.1237793874471, 0.686978440923488], [39.1314144554491, 0.686978440923488], [39.1428670574521, 0.690502067026261], [39.146390934991494, 0.70195383386634], [39.15431965945511, 0.706064717752223], [39.15784353699449, 0.70929469541483], [39.165772261458116, 0.71369920679638], [39.18738670867735, 0.759832405315025], [39.29359624039792, 0.894331090727913], [39.31653083742062, 0.923374370554656], [39.359103792653244, 0.950418851860218], [39.45536724875937, 0.986851150245762], [39.46997929761233, 0.983199854490841], [39.46500730875271, 0.994291050023445], [39.460942713818326, 1.004600631284051], [39.43002224229545, 1.015600278354443], [39.415421988030644, 1.023142549204436], [39.38208474079267, 1.05185167492672], [39.36213105996409, 1.058420675298077], [39.338527315569316, 1.061340226557504], [39.32782046244179, 1.072045224204708], [39.31711360931427, 1.075937941361987], [39.292049839493004, 1.092725226977659], [39.268202757527156, 1.092725226977659], [39.264066018818795, 1.096131331497715], [39.251655802693705, 1.100267310348178], [39.23997559928186, 1.097347796459467], [39.23145878429405, 1.100997188374222], [39.21515516703168, 1.100753895718721], [39.21028841561008, 1.102700236406568], [39.20420497633308, 1.098807553760483], [39.18668467121531, 1.100997188374222], [39.17841119379859, 1.10561974505146], [39.173787779948064, 1.113405087381234], [39.16989437881078, 1.126056224753295], [39.15407743669057, 1.137734148992068], [39.128526991727156, 1.165712315940381], [39.116846788315314, 1.166442177473456], [39.108573310898585, 1.174227355356912], [39.088132954927865, 1.173984068875503], [39.0803461526533, 1.178849794475608], [39.05576905797421, 1.182499083097537], [39.04335884184911, 1.190284216104028], [39.0311919632951, 1.198312611495867], [39.01026493218221, 1.199042464457932], [39.00199145476548, 1.202935010299607], [38.99396131491984, 1.205611132345679], [38.983011124221235, 1.203664862027261], [38.97181759595154, 1.204637997360249], [38.95940737982646, 1.198069327131957], [38.95356727812053, 1.190770786188659], [38.94091372442437, 1.190040931029505], [38.93507362271845, 1.186634937735062], [38.928746845870364, 1.191500641154563], [38.9209600435958, 1.195149913081214], [38.91657996731635, 1.195149913081214], [38.91073986561044, 1.190527501157075], [38.90076302519614, 1.185175225038602], [38.89200287263726, 1.186878223109599], [38.880079331654336, 1.190770786188659], [38.87229252937978, 1.195149913081214], [38.868642465813565, 1.190527501157075], [38.85550223697523, 1.190284216104028], [38.84698542198743, 1.186878223109599], [38.83579189371774, 1.182012511558157], [38.81711116462349, 1.17522095633453], [38.81086096149074, 1.167659800864339], [38.79090728066192, 1.158049946370814], [38.765721842054816, 1.141992901738173], [38.751364925360875, 1.133021597130228], [38.74698484908138, 1.129372244921403], [38.74211809765972, 1.12669605038848], [38.74041473466213, 1.120857071973139], [38.74065807223322, 1.11307174931974], [38.73822469652239, 1.105529698397685], [38.73335794510073, 1.101637019449911], [38.72678783068148, 1.098474214059311], [38.72435445497065, 1.093851646315435], [38.72119106654657, 1.089229071450665], [38.7192443659779, 1.086066252982134], [38.71900102840682, 1.078524134064247], [38.71754100298032, 1.072685061413664], [38.713647601842986, 1.070981996455742], [38.70367076142858, 1.070495406293884], [38.69515394644067, 1.068062454326988], [38.68882716959251, 1.064656318338561], [38.68444709331301, 1.057844035084619], [38.67909366674918, 1.054924480534705], [38.672523552329935, 1.051518330098011], [38.665466762768524, 1.045192612292838]]]}}]}