{"type": "FeatureCollection", "features": [{"type": "Feature", "properties": {"ward": "Wabera", "county": "Isiolo", "source": "kenya_adm3_wards.geojson"}, "geometry": {"type": "Polygon", "coordinates": [[[37.58516702934977, 0.40346265229851], [37.58692264454159, 0.38704874114721], [37.58229923069106, 0.374638799201392], [37.577919154411624, 0.366122162170872], [37.574025753274356, 0.362228839679841], [37.57840582955376, 0.359795512272446], [37.58789599482589, 0.360282177805982], [37.588626007539126, 0.352738859136879], [37.60346959937501, 0.350548862243217], [37.59933286066666, 0.399215333274347], [37.58516702934977, 0.40346265229851]]]}}]}